address_id,city,line1,line2,zipcode,state
46d60e3d-8477-4882-94ab-f5247c665b05,Moss,8 Swallow Court,991,1508,Ostfold
1ef7069b-03fa-456e-92cd-319d9800bfa7,Szczerców,99956 Schiller Place,622,97-420,
77139a66-91aa-462f-a97b-6dbdaa236a54,Porto Calvo,4 Bluestem Center,0,57900-000,
663cde8f-dcc0-4f2b-8bc3-0ea5ab029d94,Bhawāna,53 Superior Center,28521,35351,
41d7a943-aeab-4d4a-a48c-b068fdc1844a,Dobje pri Planini,1188 Kim Street,902,3224,
97baea42-b5c5-414b-bdd4-52af6e4835fc,San Andres,7 Northview Hill,3,5504,
392c9862-59c9-46b9-9fa2-4c0a4fe54032,Jacarezinho,3581 Mallard Lane,37,86400-000,
2f084d63-0503-4bd7-ab78-ba6044420e32,Bruxelles,2 Pond Way,129,1170,Bruxelles-Capitale
c9ccbe5b-c576-44e0-8c5a-a80276366524,Bondowoso,6669 Emmet Drive,3,,
e8c0e6c5-c43e-4113-8445-eb30f8ffeda7,Kista,8 Kennedy Point,6877,164 30,Stockholm
ade95560-07db-48ec-92db-da36f1584c9e,Setonokalong,1 Talmadge Court,504,,
db3a3d29-86de-4130-a622-05d618f0bdb5,Rawa,77 Carioca Junction,23265,,
e6ee4f63-3d58-47e3-b11b-5783e6d3d510,Huaguo,0 Ludington Alley,2,,
e3f0e2ec-96a4-4c32-814d-6b3ea1bb8a88,Skhira,44920 Eliot Parkway,7,,
39a1ef58-2105-40f2-9725-62d28d60586b,Göteborg,53044 Meadow Valley Junction,143,401 24,Västra Götaland
9dc398b7-8103-4a34-a4ac-999ac9a171d1,Antequera,781 Spaight Alley,7975,,
99066bf9-4d19-47fe-805e-1af7705f6954,Serrana,4 Lindbergh Alley,67203,14150-000,
b1496cc3-60b7-4997-968f-91c869e5939c,Badulla,828 Corry Trail,76,90000,
40f3e748-1074-4b4a-b5b6-c79f83bc0c53,Socorro,1655 Mifflin Crossing,84965,8416,
f231991e-40f8-4cc7-8f56-557f7b79b62b,Tabou,10824 Thackeray Terrace,0,,
0e32b52b-971e-4afc-8b5f-4dd24e1f7691,Sergach,200 Glacier Hill Street,7,607529,
6bcbbccb-cb93-4151-8ede-52ffbf9c2470,Lafia,6428 New Castle Junction,95254,,
9714589b-006e-41c2-a57a-048374622fc3,Tenggun Dajah,54593 Kedzie Junction,1,,
a57fda58-ca4b-411b-8d48-7711d172e2fc,Pesqueira,9 Oak Alley,663,55200-000,
7567bffd-87e2-4822-bb8f-3a811ae1706e,Swan Hills,8746 Gina Circle,517,L2T,Alberta
a26cafa2-bf06-4b2c-b57f-32a159824f67,Pemba,19 Prairie Rose Pass,1839,,
b4cd1144-12db-4d62-8450-6918b22c5b10,Ciudad Bolivia,527 Waywood Trail,1,,
10922fb1-d267-4849-a8ad-0ed05b248184,Barubandung,7 Myrtle Road,3484,,
ec48529f-72e0-4c85-9550-aa66227ee845,Xijiao,41 Kinsman Point,686,,
054604e6-71c1-4f89-9b69-f9d1827857dd,København,5 Green Trail,9,1058,Region Hovedstaden
2afadf52-e6b8-432e-a764-9b008fa61f13,Banjar Serangan,37 Lakewood Trail,6,,
1d8bf31e-9a3a-419c-a52f-5d51f340d797,Baugo,93 Harper Trail,40001,6017,
bc87fdea-bc46-4deb-8715-32892307cc1e,Camino Real,5 Mcguire Crossing,998,45306,Jalisco
c64afae3-b11c-4097-85dd-6447548a0aaa,Kagoro,3368 Trailsway Junction,9,,
0ae450a0-dbe8-4e98-bdea-3a67f3910fc2,Souto da Costa,60 Fordem Street,45776,3700-599,Aveiro
f1f02cab-973f-4cce-bf26-5336e3dd5c42,Fukiage-fujimi,378 Scofield Parkway,9189,369-0137,
8bb069fc-0cec-4843-b7f1-3bbfb41ec1a6,Malianchuan,5 Leroy Lane,2,,
fdeebe10-fbe9-4435-b47c-108e26192e83,Huangbu,5 Dunning Point,716,,
dbd9f217-ff2e-4f60-add6-65c6ad7f9108,Eling,6669 Moose Park,512,,
31f5d700-ee57-45f0-b24b-13869ffd5eb1,Balangpule,356 Roxbury Plaza,6759,,
10975b66-58f8-4329-9562-557732856d8e,Taraban Timur,6103 Dapin Drive,77524,,
5203d3eb-9541-4ce4-bd0d-a863aed2968c,Besançon,6 Spaight Junction,87,25057 CEDEX,Franche-Comté
b1e9b60b-ef17-43ad-88d9-00f1267896be,Napuro,47 Nelson Drive,61579,6709,
5e9f13f6-3c1b-4a1f-b6b0-da866db33faa,Haolaishan,3986 Prairieview Way,9,,
121a612a-cb6c-45ce-8b28-a735cbe54bff,Posse,007 Carpenter Avenue,166,73900-000,
7d155e39-fd47-4eb6-9ad8-aaa84df3982c,Oranjestad,52536 Northport Parkway,117,,
bf9a3bdc-acb1-4734-9a68-0f7f07000692,Dessalines,7757 Service Alley,640,,
b097fd4d-cf66-4137-b10a-98f562c3d723,Novoaleksandrovsk,29075 Hoard Place,54024,356003,
6c7426e5-9254-41d3-a602-cff89790e1b9,Metz,6 Commercial Drive,0,57076 CEDEX 03,Lorraine
36d89d90-4082-4023-9bae-a60903bd15c1,Tanakawu Dua,2829 Onsgard Point,8,,
072c8ee5-eedc-446d-b57e-5c87c052725c,Ban Houayxay,3 Warbler Alley,8,,
ca0dcc1f-862b-4f68-85e6-37a623d12b20,Kralupy nad Vltavou,08368 Springview Center,2,278 01,
d48946d2-6006-4e50-a241-d43615f64a53,Baliuag Nuevo,4188 Roxbury Hill,64,2812,
444dd719-2b07-4717-a183-f94ead33b42e,Puan,95789 Golf Junction,28446,8180,
975eb3db-09b3-4acb-b53c-23c3962ae119,Bangilan,49323 Dawn Hill,442,,
be342899-eabd-472a-9557-4336eccb561a,Bayan Gol,4447 Bashford Point,5450,,
d9c65cc4-a0ed-403b-84e0-beaa81dadf96,Bergen op Zoom,119 Michigan Plaza,55635,4609,Provincie Noord-Brabant
3b473f38-fa35-4547-a112-dcb64eb30a6d,Javhlant,1723 Iowa Lane,5,,
59e08e3b-b5cc-4441-8afc-6a9b1dc03310,Nagoselo do Douro,55 Upham Crossing,9,5130-225,Viseu
e88a8f35-942c-4d54-a8db-d0f2936554fd,Xinglong,56 Buena Vista Junction,94,,
f8fae128-2ff4-4934-8fb0-21873c6001ce,Budapest,5963 Huxley Place,914,1136,Budapest
c5101808-6eb2-4145-9640-28398a3a1e01,Turtas,67 Superior Alley,218,626190,
04db0193-c274-4e72-a6e1-797b619be1d6,Paris 06,921 8th Lane,9,75280 CEDEX 06,Île-de-France
27faabbe-091b-4cc3-a247-ae6b9d45e9ed,Jambeyan,0 Carpenter Hill,1916,,
99402f24-9105-472d-9d90-bca11d0d310c,Tayginka,190 David Avenue,6834,456862,
35bfc57c-1660-4538-9187-fbe14c2bb24f,Posse,33457 Union Circle,22,73900-000,
5dcc595e-23c7-45e9-9b4e-55c7e170f89b,Jiangyou,31019 Burning Wood Drive,9949,,
e1ab1ca5-fc9f-474d-9272-ee7986d15c34,Nova Olímpia,42 Boyd Circle,1538,87490-000,
b081198f-6887-4833-a3c5-9f0520fe695e,Xihe,4 Dorton Point,6540,,
0fd9495c-0250-4be4-aeca-8d7dcf56f90f,Jiangzhang,91765 Kennedy Point,928,,
ac933443-3a86-4e05-ae9b-4c19281c2911,Hakha,526 Golf View Point,56027,,
4caf8230-f2c2-4e80-86f2-04ae3eb8210f,Bielawa,04 Loftsgordon Drive,250,58-263,
d15f88f0-743a-49b2-8184-ecb8acf1b8ef,Flandes,7 Rusk Circle,25168,733517,
bfb9da28-d807-41e0-9a65-43e239eddad1,Nizhnevartovsk,4084 High Crossing Alley,38211,628640,
446da0f1-73fe-4be2-92e4-ae6042b6d822,Xialiao,866 Mandrake Center,78553,,
7008e09c-aa85-4f75-970f-818c1c38c0f9,Charlotte,2 Rockefeller Alley,509,28230,North Carolina
bf3d89f0-80b0-47c5-81cb-0ef91ed6667b,Zhanping,2416 Ronald Regan Crossing,93300,,
3728a54c-e415-4288-8ae9-258f415676da,Jiancha,80233 Carioca Junction,69666,,
b2991de5-811d-4c12-91ec-a39a14951481,Limenária,110 Hollow Ridge Park,9196,,
4c2074d6-6624-40f1-a508-148bf025541e,Nador,5 Declaration Lane,15,,
f48fbbf9-6ada-4a44-bf8c-6a6187842fb4,Caçapava do Sul,41 Graedel Place,8,96570-000,
9b89be7c-1921-4450-aba7-aa69cb42e52b,les Escaldes,824 Schlimgen Crossing,63,AD600,
916fe24f-4b1c-4035-9432-08c33116a6c6,Little Current,2 Dovetail Way,3595,J6A,Ontario
689528af-d22b-4148-88fa-e66ed1cabd24,Huitong,54578 Southridge Center,2113,,
c80e5c4b-6c54-4894-9c0e-7224fb306ffe,Combita,21839 Northwestern Terrace,99811,150208,
8d0b7db0-0afa-4416-9597-dea1fdfd5b27,Saumur,05460 Service Junction,62,49411 CEDEX,Pays de la Loire
c01267b2-f6a3-469d-b134-e0a6c744a43e,Safotulafai,08627 Banding Plaza,23,,
c3ed878b-5b88-4e43-be54-80c9351d73d4,Örebro,10546 Mitchell Court,45,702 16,Örebro
60521472-b8f3-4f11-9b6c-627b03faa0d1,Nusajaya,9 Stuart Avenue,99693,79503,Johor
ce55cce4-3289-4ea5-8264-e596ff2628a8,Ejmiatsin,08 Schiller Plaza,65268,,
0b0c4742-0b24-4969-b04f-45402a82e34d,Tuchola,8 Beilfuss Drive,84,89-501,
349e0d59-b160-4523-b0fd-cc46e4feda9c,Namur,073 Bultman Trail,1,5100,Wallonie
31b1ffbc-6760-4906-9d24-8de01fe987ec,Carhuamayo,43286 Dennis Street,32,,
0b63f550-0ce1-4676-91ad-fc2a44bda699,Quinchía,3431 Welch Way,472,664008,
e1255cc1-d7c5-4d9e-a34d-a8b0a98fc704,Anaheim,17 Mariners Cove Park,958,92825,California
904ebf7f-fa81-4aff-9d8a-7898bdb7fd49,San Jacinto,41173 Anthes Circle,39,5417,
717bf728-89ad-4c55-bafb-3ea1aa688a9d,Andros Town,16995 Twin Pines Crossing,29460,,
b3c85407-9d8b-427d-aa37-0daa148ec305,Giado,8776 American Ash Way,7505,,
e0b8b828-1d19-4506-8afe-e3f7ddd09caf,Barong,631 Washington Parkway,70,2913,
5ad9995f-7b2f-45c1-bdfa-2f167148a3f8,Redon,783 Prairieview Circle,81262,35605 CEDEX,Bretagne
38ea3bdf-85be-48ea-b08c-e929bbe0928a,Kajuru,7 American Ash Park,1,,
61d18b9b-e18f-4a01-ab8c-f213802b7e4e,Las Palmas,80909 Waywood Court,95856,67710,Nuevo Leon
b1813956-af17-4e77-9742-d90377389d84,Stockholm,25 Tennyson Terrace,45609,105 17,Stockholm
86d07781-8c00-4210-9580-988ca6ef1b3b,Naga,88459 Golden Leaf Place,12,7004,
a0941acb-2445-41e9-9d6e-e134417a7089,Cimanggu,86 Luster Way,50,,
138bb815-bf3f-4baa-b2f6-b10e8d510a80,Taoyuan,710 Dixon Lane,98,,
25607f81-1e33-4a29-acde-8bb9c6c5f1fd,Sobradinho,5 Center Pass,44,96900-000,
ce11a854-9cd9-4be0-ad18-88be99331587,Fenghuang,21 Transport Alley,90255,,
29c5b254-ea1c-4402-b763-53ce5c9a07ca,Saijō,490 Ridgeview Road,7786,793-0213,
81c9b5db-4005-47cc-aea4-fdb50eabb279,San Francisco,46919 Heath Road,94,78490,San Luis Potosi
2b17abea-31e3-46e2-bcd9-218d5a0d7272,Jinyuan,6816 Melody Circle,564,,
9181a1e2-405c-4991-9bff-3da993f746e9,Sandakan,7729 Little Fleur Drive,68461,90705,Sabah
dca35209-cebb-45f9-b7c7-b8cb5546b941,Tijão,5 Cody Point,61,4880-106,Vila Real
4937a3a0-5f1a-4c92-ab13-93fb3cfca734,Lixu,2800 Armistice Trail,337,,
d675effe-2a12-4c63-a3c1-e5a205b726a7,Rizhao,8454 Vidon Trail,37,,
68d4308a-842f-4e2e-9a53-87ee5bda9ce0,Taipalsaari,29 Homewood Circle,66362,54920,
18e5fd57-85a2-473c-bd02-36b9ceaee5b6,Sandouping,9 Steensland Way,286,,
6ec26a65-5a52-485f-806d-b956835c2915,Tournai,26107 Mcguire Way,5,7504,Wallonie
c5b157ac-29d3-4a29-8196-6db828a36cb8,Puerto Princesa,7 Meadow Vale Point,9187,5300,
3ecfd4c9-2e40-486f-ac40-7955ee3228f5,Tillabéri,81626 Arapahoe Hill,1,,
f03b2d51-8c47-4225-a4c3-01bf145266d5,Fraga,044 3rd Terrace,503,4625-445,Porto
97431ca4-76f5-418d-bc1d-9689f9636ed3,Blinsung,3 Fairview Street,7688,2317,
5e39d6e9-5ee2-4295-86cd-c203b127d382,Shūkat aş Şūfī,4 Vidon Avenue,13920,,
6bf82268-d2a6-4ed6-bb45-18252cbebcff,Ar Rābiyah,2 Sundown Lane,84,,
1fb788f0-e262-4633-bd5c-5cbf72723f90,Nanortalik,56 Mesta Plaza,89,3922,
09237cef-fb4e-4b1e-bb8b-ff93940a7838,Čortanovci,7 Rowland Park,95462,,
c4852398-c64b-4559-8c7b-37553e97b632,Cloyne,4718 Haas Court,9971,P81,
086c0269-7906-4c8d-a48f-8a82af9b44cb,Kiiminki,0223 Thompson Place,331,90901,
cd166750-af43-403d-b43c-bbf6630c6935,Zhulin,90 Summit Way,8,,
99e49db1-5cd8-4ed4-be30-1a3bf33e0cb3,Tofa,1746 Westerfield Court,6160,,
4d517b61-e659-4e35-88bc-7258b2124a50,Wutan,13 Sullivan Circle,4017,,
d53a6d7a-9388-4957-9405-f5bc617c60a4,Thap Khlo,36470 Village Green Road,276,71000,
f89169cb-f467-4681-a474-42633176f5dd,Yam,0944 Jenifer Junction,8,142008,
8653c4c5-7cc8-4334-be84-7550a3229f85,Birendranagar,1 Gateway Court,5766,,
dea4128e-bd2f-4520-aec5-dfb8d4ba669f,Courbevoie,5611 Acker Alley,2,92404 CEDEX,Île-de-France
0c908b7c-d964-4e16-95b0-c74d6c354015,Takarazuka,01321 Schurz Terrace,37658,666-0137,
c6194a99-b50e-4d57-baf7-95cfa70c9bab,Geser,4231 Hansons Trail,65385,,
80c832a7-9b98-48b8-a9e5-fca8816672a7,Mýto,56 Hudson Trail,4,347 01,
848322b6-12e4-47ac-8c07-7c6ae5f4c221,Lysogorskaya,1 Loftsgordon Lane,487,357838,
f2cbcdf8-284c-4b47-b598-0589c785d9cf,Słotowa,2 Nobel Way,1,39-225,
887645ac-a338-4707-bc79-f1e8c36d96a7,Dongyangzhen,28 Iowa Hill,0,,
d93112b9-02eb-4d35-b785-7c28d29dcfe7,San Sebastian,7 Delaware Center,23376,6714,
68d0df34-89b8-402c-8711-775e3e6a41db,La Punta,1 Prairie Rose Junction,7,4203,
7908adc0-051d-4d5d-a1c7-da233348e303,Parista,2575 Colorado Street,63185,3122,
a7f1e094-05bc-43dd-aa97-a6ffd62420e6,Vidoši,90 Petterle Lane,4065,,
0463ee3d-683a-4c06-bc9a-ada962efac6c,Xinchengpu,4903 Northridge Street,7436,,
ac1ef393-2b63-4ae1-ad75-f8f7a718a6af,Harderwijk,9 Clarendon Point,7446,3844,Provincie Gelderland
0063f440-bb4f-4343-875b-2238eb60280d,Nîmes,46553 Barnett Alley,6,30028 CEDEX 9,Languedoc-Roussillon
97641b98-b2d7-44b7-9056-d2b6f071b5a7,Hongkeli,205 8th Terrace,259,,
7af2aef8-1737-4975-bcf2-d5acadf2db73,Kramfors,314 Crownhardt Alley,2913,872 24,Västernorrland
890aec74-a38a-4b69-907e-5c7150a32416,Planovskoye,73256 Monument Trail,2473,361222,
94b8d857-c056-4f46-ae16-87f480ca5f40,Bayanbulag,5375 Welch Point,514,,
ce86fb32-f70b-4462-acf4-dd17ab5901dc,Shuidun,16588 Orin Way,8,,
331cea99-34dc-45bd-9edd-a88e6c954655,Brataj,47969 Jenna Pass,521,,
05afd8fc-f3c3-4829-9f30-c5effeff84b2,Gramaços,73469 Katie Road,871,3400-044,Coimbra
64c53ba6-cfb3-469f-9b88-6c6b441fe675,Amberd,03575 Hollow Ridge Point,993,,
3ea67782-464a-4758-8042-d4117902f092,Pulau Pinang,91982 Scoville Street,5,10582,Pulau Pinang
2bba8a0d-e71a-46d6-88ad-4cda30e6b099,Gayny,89 Sommers Way,53,619650,
1c8257fc-d4a4-4ae3-9974-0553962b5d5c,Jīroft,5094 Green Ridge Street,267,,
1bf07eee-4566-4865-a84a-5c7bb7205d83,Loa Janan,1 Straubel Park,7,,
43496cd2-ef68-4350-8f01-7afc8e7ba69c,Kombissiri,7 Boyd Point,991,,
bee570db-514d-452e-9675-619db80ffbc5,Jaworzyna Śląska,1 Lakewood Court,3,58-140,
51333508-69b9-4a8d-8044-1d764bed88ca,Gudang,71688 Katie Terrace,45067,,
fc9115a9-e7a4-4899-8195-e02f967c387f,Berea,6347 Hazelcrest Court,4737,4362,
aeb3ec18-3d58-4d02-8b77-a601c83c03c6,Hod HaSharon,21112 Packers Avenue,71363,,
ab5d0f19-559d-4af5-9969-5188daaef991,Tiaong,84 Buhler Park,802,4325,
661c03b7-8505-4e3b-83fe-0492980bed1b,Chengguan,59040 Sloan Crossing,602,,
7d58642f-7bbf-4b4b-9f0a-8ca3c2cec864,Gawul,804 Erie Drive,49,,
356b6ff8-3e93-4508-bc5f-f627dd1d6eb8,Yantang,282 Pierstorff Terrace,6893,,
0de453ec-f415-4620-bad9-8f958e045fd0,Hanting,15 Harper Hill,60,,
4ce97056-ce60-464a-a2d2-d4c4f7618992,San Antonio,80822 Surrey Parkway,83250,,
f89d462e-c989-4dad-8cd9-a80d9530ef94,Dumlan,3 Burrows Park,716,8119,
354bd590-c6fb-47f8-815a-828a05c08b74,Amnat Charoen,7 Burrows Court,8949,70160,
67b431a6-94e3-4b27-a252-0241ed3997a4,Efkarpía,422 Eliot Plaza,3786,,
c4eecc11-b5f0-4690-b669-478f2ead7da6,Cáceres,684 Grim Alley,590,52458,
c14d9b60-0c9e-42de-8798-1d2aa4ffa2df,Nidek,55014 Northridge Circle,9,43-354,
fff19528-6faf-410b-9c7c-de7bb5959f78,Maoya,137 Mcguire Point,38,,
a3f66a67-1105-418c-8637-2b34e2b4b641,San Juan de la Maguana,60 Mariners Cove Road,2819,10805,
de9cccde-ec5c-40fa-b58c-959439a4bf20,San Pedro,73626 Riverside Pass,6917,,
afde6ffb-7e79-43f9-8c1f-920006bc0619,Citeluk,9987 Starling Avenue,9721,,
64fad028-344a-44f3-a240-c009cb2ce724,Tha Maka,02 2nd Drive,878,71120,
d96a3fb9-83f3-4036-aedf-27ed5607b3cc,Kacangan Lor,05094 Southridge Park,1772,,
394d2553-4d45-494a-ad55-7c74fd69854d,Pidsandawan,532 Kennedy Way,387,921,
143b60eb-7d5b-48c6-8282-2fad919b2258,Ostrów Wielkopolski,9469 Green Terrace,37,63-417,
b85aa4d2-65f5-4d12-8363-d112f75c76a1,Moorreesburg,748 Melrose Street,7,7312,
aba0b51b-0285-47b8-8db0-33f108f5aa01,Gaiyang,4975 Larry Center,54846,,
e7b9ba12-5fe8-48da-a59f-2c055c40fbe5,Wumahe,4 Hintze Point,58,,
ade70df5-82d2-4422-ac10-78596860970e,Linfen,579 Thierer Place,57,,
5702c897-e3d3-42d2-bf44-2a19ce0c3158,Asahi,305 Grover Junction,62719,989-2474,
f23435c9-ad0d-41f0-8786-ae5641d46530,Liujiachang,6 Mcbride Junction,10,,
e89c4c7f-6a11-4725-9c07-693985b221e3,Gelsenkirchen,46748 2nd Road,5103,45886,Nordrhein-Westfalen
eb1272a2-a932-4d94-9de5-54ce345bcaf0,Damatulan,11285 Esker Trail,280,9607,
da62d134-8523-4336-a7ef-4b93825d8393,Kongsvinger,8 Vernon Avenue,2,2212,Hedmark
8e7bb253-f736-499c-8670-e110f633cd74,Itacoatiara,1 Nobel Drive,9,69100-000,
f7b82e3f-b02f-4b80-8217-17e2939e6992,Shalushka,0 Corscot Crossing,8312,361424,
d5d202d0-9131-4fab-9f3a-1c656b66ddab,Szczawnica,0041 Morningstar Street,24,34-460,
173b8367-7409-48eb-8e46-ba0e36103d8b,Caluire-et-Cuire,62 Kenwood Drive,669,69644 CEDEX,Rhône-Alpes
55a3b379-2b58-4946-9d4e-07b4523f8aaa,Tajao,6 Bowman Road,621,6039,
5e62338d-c09f-44ee-b7d5-1a163f91d6f9,Uruobo-Okija,0107 Rutledge Avenue,68,,
f184fc02-92eb-4b2b-8425-6a99d05f49ba,Temayang,23975 La Follette Terrace,2805,,
9f6f9c4b-2725-4aeb-82ff-d7ae181e8964,Erhaodi,442 West Lane,326,,
d19eef32-011c-4cd2-bfa4-5a5ca9e44770,Danzao,91462 West Plaza,33,,
6cbe81b8-e7fa-409a-a0d0-133e79c34727,Yambol,11 Fulton Pass,18,8600,
b117aef4-d453-440b-b489-ad969caae62c,Huotong,23 4th Alley,4,,
9962cb55-7587-4e1b-ace0-d220d911422e,Las Heras,55 Sunfield Plaza,86870,9017,
93b46c76-cc07-49c1-8791-4100c39ed978,Gangjia,84391 Meadow Valley Junction,33389,,
9dd4beaa-cd26-47f4-b341-8a293f435c33,Mercedes,24368 Bobwhite Park,91,11503,
0e80e2e1-07a2-4398-82c1-f658b0bc1a30,Iparia,2851 Merrick Way,909,,
15418e3f-6e41-4726-bf96-4499a42e9c8c,Genengan Kulon,7 Roth Court,4,,
f8c7e919-05a2-47f3-88ec-fd51a958d136,Na Chueak,1389 Sunbrook Hill,20,44170,
95e78a98-cc35-415a-9457-de24e3872f13,Roanoke,36466 Green Ridge Parkway,93,24034,Virginia
5488ff68-7017-4d5e-8bf9-214985c8fcf9,Łodygowice,01654 Vahlen Alley,671,34-325,
ec6d265a-f092-4093-92de-61a62f86e475,Kyela,3818 Harbort Drive,6,,
d2a91360-ba02-4d21-94bd-7acb6a191311,Mary,09 Troy Road,930,,
33bd002a-d468-4881-908a-1afd719664d2,Ilha Solteira,403 Londonderry Trail,9,15385-000,
9bf7505e-ab05-4946-9b7b-fff28e50b534,Itapipoca,28 Namekagon Road,1,62500-000,
3061e3c7-2b88-486b-b893-3f29012376a6,Gastoúni,5010 Darwin Plaza,81,,
75058d26-9cb6-468e-957b-8d4eaadd9371,Leon,930 Lillian Park,83983,24010,Castilla - Leon
48d839a8-5384-4ae7-8b43-8cdb3bec83c5,Totolan,39486 Grover Lane,723,6346,
e9358802-c1cf-440b-83eb-3ed5e11913dc,Larkird,5 Moose Hill,5263,,
3b280ba4-a010-46a6-b253-c736888c09aa,Sumbergedong,9969 Linden Hill,282,,
832582e5-723a-4cba-b469-1ee1ce4269b8,Oenaik,613 Kedzie Road,4,,
0c898a8c-a6f9-4700-9113-3cb039a8ca37,Floreşti,93869 Brickson Park Circle,5,MD-5040,
d28c829a-3856-4970-a676-8ace02caa44f,Ban Ratsada,69 Burrows Court,3,83120,
d1e43187-7dc2-4792-bee9-be5cec8f29c6,Kissidougou,1735 Northview Place,4941,,
25a301db-3450-4d64-beac-1c8882e821ae,Illela,58 International Court,2,,
db7500ed-9efc-4041-9f53-b1a1f730e88d,Châtellerault,93933 Duke Hill,544,86104 CEDEX,Poitou-Charentes
131d17e9-8279-4157-903b-1f365d5eb87a,Lancaster,40307 Westridge Drive,9,17622,Pennsylvania
142fffa9-f3fb-43b0-9bf2-56ff4dde1744,Yangping,5916 Stone Corner Lane,9,,
14f18df4-ff90-4ca4-a30e-2a4d880a86fd,Qingshan,921 Bobwhite Hill,25630,,
6dc03ce7-80a1-4d49-8de2-493c1bc486ef,Arţās,5506 Sutherland Parkway,487,,
5d6b3368-6075-4cef-a427-603071fb9a66,Kalidawe,39362 Milwaukee Parkway,54416,,
23643e34-e3e4-4047-95eb-771dc992ff2a,Cornillon,1 Melvin Lane,14,,
bd2ad2b8-dde7-46ee-99d5-2330f901d7c2,Kapshagay,45 Londonderry Court,94,,
07e84584-d5bb-4b08-a4dc-7ffb39e75e31,Hanyū,4733 Veith Crossing,48,374-0055,
aeda3af0-5ca9-42f2-a9df-d8f841c5c553,Shashi,716 Shoshone Center,29,,
feb79dcb-58b7-414c-b1ab-a57f546edcbc,Kusi,3 8th Parkway,1365,,
920c4630-dc7d-4658-8b41-5fd3c6054862,Falkenberg,9919 Huxley Place,11701,311 35,Halland
6078a262-9698-4c9b-b35d-a0a238ec6d97,Faaa,26 Oriole Place,1,,
658e53e8-5719-4cfd-a025-02c0a73d2a8a,Kapasan,38055 Glacier Hill Trail,6,,
106fe0c8-3824-4ba8-9283-d43eac903666,Sabana Grande de Boyá,29856 School Way,9472,10405,
78bf60cc-f781-4850-8c1f-d0e7b2e8f15a,Bohdalov,639 Mockingbird Circle,840,592 13,
8fec62c9-c749-4b75-a4fc-71ddbc964573,Barvinkove,08624 Saint Paul Park,8822,,
f1dd9b57-f6bc-4104-b1f4-ea87477bd2d2,Štoky,0590 Pawling Lane,588,582 53,
c3a55951-ac0a-4148-af8b-6514202fa926,Qvareli,8034 Monument Crossing,20211,,
0d475391-f8e3-4ab2-a0aa-9ac6665f37da,Xiniqi,1 Larry Court,42,,
9d5c2b13-64fe-495a-85c5-e1536fb787ea,Zhangaqorghan,582 Nova Circle,34,,
c4b14622-6812-4b37-b00f-de8a8fcc3d13,Nailong,504 Ilene Alley,39,6012,
3f5d1e0d-89f6-445c-a384-9fd426edf689,Minusinsk,28389 Pleasure Avenue,56,662622,
27801a83-2b5e-48f6-80ef-eff0b69e43e8,Koilás,8874 Loomis Parkway,7,,
f0932e6e-6527-4ddc-a09e-233e59c220ac,Chanthaburi,65 Fairfield Place,9757,24120,
568402da-e48b-4a0e-a14b-bd9a21015794,Aroroy,708 Hoffman Drive,31,5414,
f8118f84-34dc-4aac-8275-a5a8b9aa289f,Bourges,9129 Cody Parkway,88896,18013 CEDEX,Centre
62b6bafc-02df-4bc1-b40f-1c8c532795e2,General Pinedo,1548 Talmadge Parkway,996,3732,
52f26e20-7199-4ccd-b477-00f628fe1fe0,Sukasada,36 Mesta Crossing,1,,
fbe4df99-2f18-454c-b2b1-ca9a1f436f4e,Velykyi Bereznyi,3 Badeau Alley,9,,
f02a723c-4b7e-48f9-b259-57280ac54c2f,Almaguer,647 Talisman Point,561,194089,
713a0718-788a-458a-a5cc-360f67f20861,Minh Lương,2 Vidon Lane,319,,
0a3d1a9a-cf9b-4ec2-94ad-8809c6001656,Ambatolampy,4769 Scoville Road,69,,
104af7c0-4796-421d-a76e-44c018d486bc,Ampelókipoi,21753 Victoria Terrace,6170,,
436272fc-b9b1-40bf-b528-89a5292d4055,Xiyuan,34 Welch Crossing,343,,
155c0464-645f-4e55-a5c3-36e95d979282,Zongluzui,6 Dwight Hill,2374,,
06d91fb1-b1a0-4645-875f-bedb2c933649,Proletar,340 Mandrake Lane,98779,,
bdd9bc25-3fae-49c2-b2f1-2b375d0a1afc,Qishui,6 Chinook Junction,42,,
610ab897-fbd9-41a0-901b-e8050ce24cc4,Gongdanglegi Kulon,8 Longview Crossing,73,,
6d47209a-09cb-4e46-9394-1b83845eaef8,Prudentópolis,8214 Sullivan Lane,5,84400-000,
61eb998f-40f0-4592-a233-b1aa3d1761f5,Pontinha,34514 Haas Parkway,103,1675-007,Lisboa
b17b311d-b343-4227-9e64-6882cb33aacf,Shikou,35193 Pennsylvania Drive,6,,
b23c595f-29b7-4cf3-809e-e367ba91c00d,Tamuning-Tumon-Harmon Village,2984 Aberg Junction,94969,96913,
394c2941-819f-414a-b59c-c3e387e10722,Lluidas Vale,4364 Elgar Park,4,,
ff1d3dd2-5aff-43e8-8f10-02d0292b2253,Juupajoki,3134 Mallory Crossing,1985,35540,
508c3bdd-77ff-4727-9776-400a99968800,Akriní,9250 Fisk Court,61,,
848c9652-fc2f-4e87-85ea-e5254b8bba6b,Wang Noi,0 Lawn Center,7546,13170,
7be7b982-b626-4c65-b9e7-338059e5178e,Magisterial,12 Manitowish Way,60,32350,Chihuahua
6d84a3ba-03f8-4fb1-9867-121eb85d2955,Santo Antônio de Posse,36 Drewry Drive,65103,13830-000,
13ed9e2a-daf5-4f1b-ac88-156ba391c843,Sepulu,1 Bluestem Plaza,706,,
de0ac7c9-718d-4359-94c7-2a259da94180,Xinkaikou,2442 Holy Cross Lane,99,,
657ac729-7f21-4203-a013-d63eb7cc649f,Pantubig,033 Mayer Park,8107,1706,
73e159e0-669a-431f-ae1e-09017d28faf4,Ivanovka,9300 Moose Park,5,102753,
e6a6a18f-c28e-4829-82ea-59b9a0210e51,Höshööt,02 Lake View Trail,70,,
3ffce42a-26e9-4072-86cf-e33026ad20a8,Richmond,79 Dahle Terrace,26,23285,Virginia
7c7e79d7-4177-4053-91ce-56408328d0ae,München,12 Old Gate Terrace,38,80686,Bayern
99412958-b13c-4030-afdc-5f4e52d3038e,Tindog,1 Bashford Center,639,6012,
3cbed6f8-8d79-4f58-828f-f9a7b918a598,Mirador,84343 Sunbrook Hill,60,87840-000,
abb28422-6651-496b-9947-cc3e35890134,Cikiray,194 Summer Ridge Crossing,63,,
cc480b98-d95b-4ecb-9884-c36c20ba8962,Amsterdam-Oost,0 Maywood Junction,3,1094,Provincie Noord-Holland
499a9e6a-121a-417e-930a-e1bbf3775783,Birowo,9124 Mosinee Lane,43184,,
edaa4c46-22fe-4735-b5f6-4f5d7746098f,Yangjiafang,4 Warrior Park,17847,,
d1341cb3-74ef-47ef-8d91-5de7e58a4fde,Luján de Cuyo,09684 Pine View Crossing,930,5544,
2dcca44e-cbcb-49ad-b7a7-084537692eb3,Masis,19538 Pond Pass,5,,
762192ff-419c-41d8-a8d0-2ff9ca8e5f35,Shebalino,00 Morrow Center,42,649220,
69da6a09-3df1-4469-9849-78e6f2434772,Chatian,6526 Melvin Park,67,,
c60cc4d4-25a0-4db7-9a06-8328ea01b440,Tulusmulyo,6 Cody Center,2060,,
16676850-01e8-401f-a4bc-3d3f4c834515,Kirawsk,5 Loftsgordon Trail,145,,
7e74948d-c1c9-42f5-8f51-a645e0fb72b6,Łubnice,397 Bayside Pass,1,98-432,
2b5063a1-3c8d-4202-9c8f-fc5fa1020400,Malabag,30533 Glacier Hill Way,23,4118,
b6843a51-8b91-407f-9ed3-021dada5068c,Bungu,6340 Westend Trail,74,,
dfea47de-47e9-4087-ba44-346a3b66d5f8,Dublje,37551 Lawn Center,11,,
6c407ddb-b51c-4e9b-b7ed-4b8e29040e1b,Drezdenko,5 Pawling Plaza,2660,66-530,
71d880e3-37a5-408c-9f0d-b55a4d939421,Puntaru,44 Barnett Avenue,8063,,
bfae89d6-3b45-436d-a0b0-d1d8ed0ad430,Tongole,4 Northview Center,163,,
9d7357f2-38e3-4894-9864-ae7dbea10a3b,Jabłonowo Pomorskie,44444 Bluestem Point,2297,87-330,
be82ff02-a841-4e00-a2d6-d4729bca24db,Meipu,47687 Jenifer Lane,17,,
aea46c34-d89a-4927-86df-0a0ce57c9156,Laguna Salada,337 Maywood Junction,19132,11004,
bea090e1-a185-4f82-a2b6-381d3cc5db7f,Krajan Tengah,41 Magdeline Plaza,88,,
2ff1004b-6ddc-4a34-b51d-52f747a8d8ca,Jiwei,4906 Lighthouse Bay Street,600,,
cb6c0288-4c83-4702-9f2d-900fd5a43b53,Brest,094 Grover Point,1117,29825 CEDEX 9,Bretagne
4e08d382-56f3-4fa7-adb4-0414a8da57e3,Purral,756 Northport Trail,65,10807,
fbb1f24e-2b46-49ce-9bd1-b4523da6e5e9,Wuyang,6525 Sunnyside Drive,15822,,
8d4805b1-23da-498e-916a-dab5a0052ae3,Seseng,03817 Granby Street,93,,
769ea11c-8934-4cae-ae15-f74c38083f77,Cergy-Pontoise,1569 Drewry Terrace,4461,95319 CEDEX,Île-de-France
31002283-3a44-4cfe-858e-caca03a6e22d,Qifang,20263 Holy Cross Street,615,,
98a91c9b-760c-4bfe-b0a2-eaa4192554da,Uubulan,04 Eastwood Center,513,,
a6d12f61-706e-4773-a18b-eb1525b6811b,Panay,418 Tennessee Trail,43339,5801,
b48b0de2-bd82-41a3-8ca5-73eb3c3698cd,Jiangcun,884 Cordelia Trail,1225,,
c69c91e0-c2b1-44b5-beaa-9823bb89227f,Sentul,493 Del Sol Junction,0,,
2f7d78c0-01c9-45c5-86c9-52785ce90bcc,Tiglauigan,63 Anzinger Avenue,85,7305,
38cd1b40-01c5-40c4-a6e1-40fa3f40d914,Yinjiang,7368 Heath Avenue,22,,
b164b4c4-bde3-4cb6-8b15-d065271d745a,Semanding Barat,978 Dorton Park,1795,,
c605ff85-31b9-4eb2-a6e4-dfbe3c317d5f,Billa,613 South Place,67,,
b593e871-9105-4ae7-8ab2-7010511256bc,Stockholm,87 Oneill Lane,8125,131 88,Stockholm
177ba48c-6d85-48ad-91ad-f042ea8fe2bc,Fullerton,669 Wayridge Road,48993,92835,California
40542c46-7b1e-4b35-98aa-1313d60b5a19,Wyszków,2215 6th Junction,7,07-202,
cf9bb2f1-5dc4-4e84-bb36-0f5638f981cc,Dianwan,803 Esch Way,8868,,
8239ebb6-a465-4e4c-93d4-89d5c19cd705,Rače,4939 Saint Paul Park,79364,2327,
ecb05e14-9fd5-4506-8138-8094df3990af,Manay,4 Chive Circle,409,7036,
bd617a78-4ba9-4a64-9602-f20f4e4caf3e,Mengjia,3 Meadow Vale Pass,18723,,
acb99640-7c5a-4ea5-85d1-359d4ad8e32d,Arsenal,89682 Arrowood Junction,278,,
61dface0-af35-4259-a4a5-e7e86506cf61,Yuping,549 Cardinal Junction,0,,
74c8a8e4-f53e-4517-be4b-6150b0509faa,São Pedro Gafanhoeira,57 Clarendon Lane,22,7040-524,Évora
05203478-e11f-4d73-a7fa-7448900417b3,Sanbao,840 6th Way,796,,
2cec158c-58d6-4eef-a77b-d873d3a89b8d,Banjar Banyuning Barat,4312 Garrison Avenue,9675,,
ae07371c-9c99-433c-a7b7-47567d728994,Marumori,09294 Killdeer Crossing,9,981-2501,
7ebdb790-8685-480a-8f07-e5d18f602012,Qixian,786 Cody Center,7,,
8464d97c-8359-44d5-a480-1498f69c5dcd,Staré Křečany,5688 Fallview Alley,51923,407 61,
555ee765-e83b-472c-9c64-ce037796f3d0,Capiíbary,2562 Lien Hill,8028,,
02f6def9-f968-4651-b54e-7c054c562348,Gjoa Haven,08 Bunting Road,5549,J7R,Nunavut
617d73a0-5d56-4d94-ada6-058ff7566d11,Luoyuan,55313 Brickson Park Trail,5,,
131c7041-2722-4593-b049-c16ae645fc06,Svyetlahorsk,6918 Westend Hill,252,,
c995f043-da9b-438b-91f7-190b9e663a6c,Agen,9444 Erie Street,6,47923 CEDEX 9,Aquitaine
6bdff500-8c0e-4052-8ef8-38a63ab3dba6,Futtsu,7805 Southridge Center,8,293-0024,
54d0d344-1950-4131-8365-f320dfdcbc43,Baipenzhu,8165 Stang Way,9627,,
2a6f47e6-f796-46cf-907d-176fafa9d7cb,Lanyang,12 Milwaukee Crossing,653,,
48f430e0-3c9b-4a13-b040-31d8b65c2b6a,Pittsburgh,9 Sheridan Place,4386,15286,Pennsylvania
de367ebe-9a45-4da8-8e0d-63adc640e264,Lady Frere,9 Hollow Ridge Hill,55748,5419,
25e4e086-0892-4bbb-a878-4901252bd3ad,Adelaide Mail Centre,7722 Mayer Terrace,57,5874,South Australia
25377172-f60e-4349-8725-21fce84d368e,Dukay,5 Superior Terrace,3245,2101,
c4024bfb-fece-4cf4-94a6-600ce70d6bdb,Itanhaém,987 Bluejay Way,23,11740-000,
106e6260-c5ea-402a-a794-06d616bd23e4,Capira,7 Almo Crossing,448,,
f0681e40-3606-4f01-bee4-36bbf02f8cda,Hovås,952 Bayside Center,120,436 54,Västra Götaland
fa9ff13c-68da-4c6d-9375-7f824221e39a,Vedène,11259 Waubesa Street,81719,84274 CEDEX,Provence-Alpes-Côte d'Azur
b4218dc7-fece-4c02-bc6f-9b247b22c846,Nikitinskiy,9375 Reindahl Place,89898,652581,
042bdc41-aa18-4f61-9581-d73969c4e379,Skelivka,2 Debs Point,1890,,
777c8de5-a882-4e26-84fa-fb31fa5cf716,Mishixiang,1 Larry Hill,727,,
e994e7d2-660d-4e7f-bac6-4f66e520eeec,Karinë,71695 Briar Crest Pass,520,,
3c13906a-6316-46da-9095-d70677b522c5,Petit Raffray,4294 Northview Hill,87001,,
67341b99-da52-4204-9ef3-724beb05ee2e,Kuala Lumpur,00834 Lillian Hill,17,50720,Kuala Lumpur
2f2d6772-e46b-4324-9d0d-f96f8299f348,Bulianhe,33967 Bonner Center,5765,,
976f209e-1b9e-4bf6-89ab-7ef7f53f1973,Yaransk,93 Pond Parkway,32937,612269,
0e351e5a-9ac5-4430-9f6e-b3f00ac52cf9,Smolensk,66 Hanson Hill,68,214501,
4d400706-e66f-484d-a15f-2e2bc6ea5a43,Tha Bo,28464 Alpine Lane,42713,43110,
b3655962-b7ea-4793-ba44-feda34f09c08,Wohyń,19 Meadow Vale Pass,7,21-310,
dc3c04b5-8497-489d-b315-0abd9fb8fb06,Kalungu,81817 Holy Cross Hill,31,,
65366b06-d79f-4111-b81f-612e5916d5ba,Prestea,2 Cottonwood Place,876,,
0736aa08-7e2a-473f-a51e-39e81d6ee4c3,Stavanger,27 Service Crossing,90,4015,Rogaland
3af79345-818a-4244-8771-96494cc5c423,Abidjan,1703 Emmet Parkway,3,,
12073db2-abf1-4035-9562-6998f33ee9e4,Santo Tomé,2 Everett Terrace,35674,3016,
c8055e98-caa5-4bf0-8b60-7915dff8d3d7,Enhe Hada,074 Tennyson Circle,2,,
a83be66e-51f4-4130-bc60-d8a82714456c,Ubajami,0022 Fieldstone Avenue,2122,,
73bd0501-38db-46b9-8025-b39b6d59cd7a,Ouijjane,69 American Ash Circle,4488,,
7968fa22-390f-4ede-9ce4-c2e1cbb56501,Pensacola,7030 Sage Plaza,600,32505,Florida
96f97cd4-9377-47ba-b065-b540cb84b457,Bulumulyo,11 Corben Plaza,37,,
42a8b313-8080-48fe-83e1-14a47381a8e2,Pomerode,77451 Mesta Way,7,89107-000,
1faa6de9-940a-49de-80c5-85a3a0dad36e,Anopog,92125 Hansons Point,2,1695,
e22420c9-e7db-4abb-85e3-9ab2dc98c2e6,Mache,2970 Sage Court,51904,,
34ab99fd-2887-464f-bf77-3369dad1125a,Wilkowice,203 Rusk Parkway,1388,43-365,
5800b2b8-60dd-4b29-a6e9-a754b507042e,Deir Ḥannā,9366 Mallory Lane,831,,
09959637-8274-4366-b437-ba38d6f4e26d,Wangyi Zhendian,28 Novick Way,36114,,
8ee0329a-df57-42c8-8fb4-cbb8379f38b4,Seaforth,4 Monument Way,7747,,
8b2743c6-165f-4588-96b9-a3726047dcf5,Qujiang,09042 Corry Center,25,,
6e3a8e90-9799-4ac3-8d09-836e27b3d80b,Changping,7083 Service Pass,56,,
e3eff9a9-2259-4f76-ba90-70e44059ea65,La Playosa,27399 Huxley Hill,19,5911,
ac13b242-0d86-468b-8635-961f0b2c2fcb,Dongkengkou,3709 Lunder Street,8179,,
46153fdd-3f63-447f-acf9-a446d6e0b171,Mapinrea,917 Hanover Trail,79622,,
1ab7018a-c2a0-40bd-97ce-5ea2c4dbe922,Ilo,07777 Talisman Road,17,,
83567d70-8517-4c4d-b519-8072f34d8042,Ziway,289 Cardinal Court,64,,
5f157754-3616-4f7b-9a70-d96fc3f21752,Kingsey Falls,2051 Swallow Park,484,T8H,Québec
1e5aa8a1-140b-4f4c-bb47-18effd5c6943,Wiesbaden,758 Sachs Point,13895,65191,Hessen
fb868009-6280-4c33-8197-a02ae21a0471,La Talaudière,9 New Castle Point,40,42355 CEDEX,Rhône-Alpes
221a4877-a0bb-4684-8164-66e533dc434e,Mabuhay,08455 Donald Alley,61,7010,
34bc6ba9-2a7e-4ef4-8c2e-b86ad587ef7d,Khakhea,28392 Village Green Plaza,127,,
1864fc57-e045-4db3-8a6e-85309ea1a1eb,Ozimek,23 Westport Hill,6,46-040,
d2fbecbf-7288-466f-8f6a-618893167521,Gangbian,16771 Canary Alley,9,,
dda069e6-5051-430c-b127-431fc8964772,Călăraşi,113 Grover Crossing,9,MD-4438,
15f57ea0-ea70-4041-b98a-1ad0d6e94f32,Nizhnevartovsk,3013 Shelley Hill,878,628640,
84027bc8-681a-410d-a6d9-6935239cd793,Vreshtas,8104 Vidon Center,28374,,
59308e85-b84d-47bd-aa8b-37744f88ceb5,Eadestown,98 Thierer Circle,34246,A86,
31d62c83-550e-4667-bb23-cdba9c2a6924,Mosquée,0 La Follette Park,717,,
c9277609-9e8e-4512-86f0-7e8d0555aa09,Tetovo,160 Boyd Drive,4,1200,
4173eff1-f6ad-43d2-a368-6cee3e51d1ed,San Roque,88008 Russell Street,440,6415,
e0806050-1d4f-4497-a119-9508d98fbe2c,Takai,89939 Anhalt Hill,287,,
2417b484-e104-43d7-84e0-cd9553ebcd79,Senada,982 Elka Park,30,,
c006e78a-8b6e-4d21-b20b-8c8b50e37ee7,Wangzuo,999 Goodland Terrace,513,,
b62ecf9e-3bc5-4c71-ab02-977d87928c73,Peer,5 Maryland Park,77396,,
90123824-5b20-4e73-aecb-2f79a2f4294b,Bayanhongor,7 Golf View Parkway,6021,,
176339b4-68c3-4107-a98d-5ea47662b5df,Savanna-la-Mar,600 Dennis Parkway,9,,
499ee9a9-82e3-4761-b7a2-ad9f21183c83,Puerto Cisnes,2077 Manitowish Center,300,,
5f24fc65-c99e-4318-a7a1-ee963b26cfcf,Urengoy,8 Di Loreto Avenue,7,629860,
14a53268-fc68-40cd-9d72-b3d8585f4d59,Nagrog,8 Delaware Street,801,,
8ae2dc32-5f05-47d4-a7d8-34f24cb86be8,Estelí,1 Miller Junction,71,,
28799a59-9e22-432e-91de-8eb90d4952dd,Iţsā,159 Pond Pass,912,,
c3e75f5c-eb76-497c-826a-dc9d7ed318b0,Granville,5 Hoffman Hill,61943,50404 CEDEX,Basse-Normandie
62f2e0fc-8c54-4e06-ae4f-571cbac0b2e5,Qingshuihe,25831 Longview Park,58571,,
9b098956-62e1-4f08-8536-a348268f0293,Raszczyce,769 Lillian Park,87,47-435,
818105b1-5158-4855-b6d8-821fd09d57c0,Szlachta,4 North Junction,63,83-243,
220add14-3378-40b6-b7e8-9f1aad9b2a59,Messejana,72 Scoville Way,442,7600-314,Beja
d0f398e3-f21e-4b7c-92c0-8b4632730ab4,Uruguaiana,9 Blaine Park,28,97500-000,
5c5d5d21-c9f8-456d-8933-1c749984edc6,Malino,66864 Butterfield Crossing,61853,2310,
b30ff894-582a-4e7a-8276-5d69ace4fffa,Słupno,62 Laurel Street,44,09-472,
dd7f74d8-b8cd-471b-ad0c-8e56bf10911a,Lenger,9497 Carberry Road,155,,
228ab3b8-e1b0-41de-bd4f-d07e9d917f26,La Virgen,85497 Badeau Park,8,41002,
7342f880-3287-492d-8d1a-bda4fcdbf5b7,Crépy-en-Valois,4 Karstens Trail,2,60804 CEDEX,Picardie
c0d1e7e1-8576-486a-bbef-26e2e791a20d,Paritaman,874 Alpine Circle,437,,
419fcca3-2939-4700-af59-a550614c4f30,Huangben,17144 Bay Trail,70042,,
6cfdf09a-f98e-4078-b9bf-ee35528edafb,Shihuiyao,56 Northport Parkway,9,,
b65a1516-a184-4669-80c2-1ffe3702d90e,Guia,242 Nevada Circle,1891,8200-434,Faro
0765b5c8-95e1-49c5-ab05-20aebe00e2e3,Dehang,88 Victoria Avenue,52745,,
a85570a8-69c9-4766-96e4-1762dfa7cfdd,Nahrīn,14 Acker Alley,6,,
af4e6155-141d-4bb9-a281-e962dafb3a21,Hadabei,92 Ridgeway Drive,47633,,
14f5c2d8-0691-4baa-8963-991dcdc9a213,Poroçan,08476 Hallows Pass,2,,
3a064386-06fe-4ca4-9190-649b57e9c8be,Niort,58 Petterle Avenue,81703,79021 CEDEX,Poitou-Charentes
3a8d2b91-12af-438c-8c49-d1ecaaf8dd38,Karangpeton,51909 Paget Place,2753,,
752d500f-975a-43dd-b9fa-5690bf51f146,Barreiro do Jaíba,5237 Atwood Drive,75569,29785-000,
70fbadab-6eff-4798-95cc-527fb69e1c53,Dalai,9 Trailsway Circle,37,,
ae19e9b6-a245-4eb2-b6bf-b385ced6b6f9,Batan,324 Bayside Alley,0,5615,
b5239576-5c5e-4463-b29a-85e673c3d361,Jiangkou,9 Meadow Vale Circle,92,,
b35fbbb2-c2ff-4e93-b414-9ff9a2884f3c,Miao’ertan,9953 Sugar Crossing,11184,,
f1804c42-14a7-4bf4-8773-be2c9d046831,Macapá,6673 Kings Circle,258,68900-000,
0cfacf78-2a94-41ba-ad1a-5bf9b2dce664,Chirpan,277 Sullivan Parkway,5,6200,
8efc2734-16e0-4ee2-b862-eb5103fcbfe3,Angoulême,6985 Sloan Place,1,16919 CEDEX 9,Poitou-Charentes
c737e331-8a28-4d75-8a7e-a2379c58caf4,Danxia,4 Weeping Birch Park,25545,,
55b5e723-95a4-44e2-9616-5d50e9cb3702,Qiangqinxue,645 Linden Center,71,,
21c88331-fcef-484d-a442-681ea01478d0,Jardia,381 La Follette Place,99,2870-632,Setúbal
8de4470e-94c6-4935-98c2-4b79c415ad44,Cisalak,24 7th Point,4987,,
6728762a-4c65-4e6f-ac66-26cfc335764b,Guder Lao,90 Thierer Hill,2603,,
b6994782-084e-4e91-920c-d0972533beff,Frei,0 Upham Parkway,130,6524,More og Romdal
a69d1ffe-2cb0-4ae6-977b-8c241cd8ec27,Tučepi,818 Magdeline Junction,738,21325,
f9863a98-1519-42be-9898-9122a5d393a0,Kalety,32262 Scott Alley,2317,42-660,
d6461724-50d8-4663-a4c3-798920623e2e,Kimje,09740 Fairfield Pass,33850,,
a21c1416-718c-4254-baa7-d4826b3b576b,Totoral,68 Bobwhite Parkway,55023,,
3a02e3b7-7e87-40e6-a0c8-2f812ebc8ad7,Hatton,11 Mariners Cove Circle,48,22000,
e8a7fcde-5eef-4e4d-b6c0-6fe192f0973e,San Miguel,8 Bellgrove Avenue,74439,10302,
89f1ca9c-749e-44cb-8a89-366d3aa415ca,Haokou,3302 Bluestem Road,2,,
30543d2e-2ee6-4075-ac39-9b09116ba7f5,Stenungsund,98 Dayton Avenue,14,444 32,Västra Götaland
7436d318-e377-4406-a597-35429c9edbaa,Diré,8253 Green Way,0,,
5bc112d7-9cb4-4e20-afdb-d5e6baa5a952,Olhos de Água,92 7th Pass,9893,2950-682,Setúbal
57409bf5-e1b8-4620-a2c4-4f08acfc3150,Ngawi,462 Arizona Alley,51759,,
196c8a8c-352e-4251-88a1-5c97529b4379,Couva,13 Kinsman Center,5586,,
13731d18-8824-4779-b4e6-be68a48b2163,Sa Pá,800 Melody Court,6,,
a5fb7575-7d67-4b67-aad6-c784c9cfb3e7,Tuscaloosa,0 Merrick Parkway,189,35487,Alabama
e1cc62fe-4c1a-4d3f-b7bf-888bf65bb0c8,Polel Diaoubé,55137 Cordelia Court,3,,
41df8a1b-1ca2-4fc3-a4f9-104799303402,Changtang,71 Schlimgen Terrace,133,,
1f78b90f-3a16-43a4-a5c7-3b7b2c186359,Sakado,301 Prairieview Lane,58,929-0417,
e897fddf-b8bd-4974-902f-3221fc36bb14,Jönköping,77182 Oneill Pass,5107,551 84,Jönköping
341340cd-0351-4c29-8489-90ee97c81ed0,Songjiang,88 Di Loreto Park,3,,
c2a62bc4-90af-42b1-a380-f48feea2df38,Starigrad,641 Moulton Hill,5983,53284,
192c5b5c-b3a7-4aaa-ae83-9e84960778e6,Dhahi,23865 Claremont Court,15,,
a67cda0e-dc98-4770-a6cb-4be98d2579d3,Koumra,88 New Castle Point,6,,
26345f88-8e5d-44cb-8847-7a1cfd100a5f,Drosáto,0186 Bunker Hill Hill,212,,
36d147cb-f3f9-42e8-bac6-12612c4ef8df,Kaji,46 Sunnyside Trail,9,,
7f23f35b-0228-49e5-9419-d413eae95d2f,Sujiatun,06 Monterey Pass,19,,
a4385f57-5159-4f5d-9038-425a5abb0892,København,47 Hoard Point,698,1111,Region Hovedstaden
4182c0e3-9163-49c7-9b66-6edce4598005,Woloara,8 Mccormick Plaza,75869,,
26af8bb0-bb54-4555-aa1d-7f512f8d7407,Luftinjë,4243 Eastlawn Avenue,7,,
b4f8bf8f-ba69-4e0d-896a-05532ed844ab,Zagoryanskiy,116 Coolidge Place,73,141143,
9fa46c65-5d88-4b95-84b1-06f44569a2ca,Gelin,52 Dunning Street,5206,,
7be7be4c-9a4d-414b-b4e3-e081c6a046c4,Figueira Castelo Rodrigo,4 Shasta Parkway,8,6440-104,Guarda
342eba65-b7b2-44ca-879c-cd2f4ebfd829,Borlänge,67454 Elmside Street,4026,781 29,Dalarna
5af6dc23-0a9a-40ab-b587-0528229c6956,Balabag,4910 Oneill Parkway,48,5001,
aaaea644-be16-4706-acfe-a79df9fec13a,T’et’ri Tsqaro,33187 Pennsylvania Pass,3,,
98f1d105-7014-487c-8d88-518558a13f71,Capira,3 Montana Plaza,26,,
22970eff-1ec9-4127-9e66-dc04b96ba5c8,Xizhong,8 Southridge Trail,6737,,
11a879af-c48c-42f6-9c69-5c032ffbf89b,Tisco,2987 Clyde Gallagher Park,3029,,
c5d2b7ec-05e4-47df-a626-84361080088b,Hanghuadian,1592 Sullivan Drive,1966,,
ed9f0821-a691-4762-bc90-fcd406c3ce55,Gerong,68462 Clove Avenue,36855,,
b7f138dd-7e8b-416c-8b6b-ae51e56394f3,Fatukanutu,5500 Jenifer Pass,37,,
42b8f993-b673-4f31-b715-88940e4cf082,São Tomé,509 Glacier Hill Drive,47,4795-549,Porto
c20eeda1-1c64-4249-aa47-534e7e115651,Centenario,6712 Vermont Road,5,8309,
74665e40-5f5d-4250-a924-c5fc16355b51,Takaka,17395 Declaration Place,5287,7142,
41a00b21-1e19-4d17-a4f6-a95d3619ad7a,Amu Gulang Baolige,182 Everett Avenue,92437,,
4b7b8a64-4176-42c2-8e9d-6387fae6258a,Karangmangu,3 5th Place,9,,
59f094b9-e204-4b27-92f4-ef06115a9e47,Tsaritsyno,74 Mcguire Alley,12,142717,
cacad414-7520-47d0-9f4a-faea6a359a5e,Bogorame,067 Tennyson Point,641,,
7b753f37-37b9-467b-9070-db7e3699b873,Arnhem,79765 Oneill Lane,1785,6844,Provincie Gelderland
d68a0816-8bd1-4d2f-bd5a-75e1b754ba68,Aş Şalw,073 Blaine Junction,847,,
30c5ff72-7a98-408c-aa92-edf16d4a0daa,Leninskoye,7039 Ronald Regan Court,6,197733,
5aa7198e-7eb1-497a-97fb-ef2fd9aebc8c,Sukhothai,74697 Namekagon Crossing,0,75120,
d15a8c12-5d18-4ac1-9ecd-38009e835747,Oxbow,87 Spohn Hill,9,T9M,Saskatchewan
fb7927dc-9172-4096-be3f-3054466583e9,Guayabo Dulce,74 Macpherson Drive,889,11904,
41d32104-b3d4-4fa7-9ad1-2dc34cff4fd4,Jastrzębia,35 Little Fleur Avenue,1091,26-631,
6ae8edd9-a9f1-49f5-bd71-a5d112a035fe,La Sabana,9 Burrows Trail,3372,,
cb4175ca-4909-440e-9c80-cc95e7887719,Zuhu,3 Superior Court,8,,
72175f27-1331-48f3-9c53-4bcd452c38be,Bangunharja,095 Moulton Avenue,7,,
0e89ee4c-e462-4f52-83b4-c2a3ca663bbf,Tembau,579 Brentwood Terrace,6709,,
342464a9-8f32-4bf9-942b-d44086d77270,Cordon,9 Lien Park,6,3312,
d14f3cba-6619-481d-81ef-97fe001f729e,Bayeux,8030 Russell Lane,8,58305-000,
78993457-42a0-48e9-8654-c48f8afa5a8f,Tinambacan,648 Toban Court,4,8611,
e8d9747a-22b2-4747-987e-6032d4166683,Caimitillo,68108 Northwestern Crossing,380,,
7a3921e1-9bb3-40ae-a662-07b329135c33,Labuan,35 6th Way,5,1151,
9f2bb526-ee62-4a11-9b53-953064c3f7c6,Ust-Kamenogorsk,66400 Mandrake Trail,7744,,
4a2fb73e-65fa-4703-be57-8caa6f1e6865,Dongjie,4 Pleasure Court,4057,,
08856a4e-b539-453f-bc45-d54e548346e7,Bang Kaeo,49896 Pepper Wood Center,96062,93140,
5936957b-830e-4e36-b129-05f8c8006805,Cerenti,356 Bobwhite Junction,163,,
64e9d49d-7d51-498f-8352-7e1cb5a8debd,Lamont,93986 Badeau Avenue,56981,N2E,Alberta
0673c4f1-8cb5-419a-b301-c24a417163a2,Wróblew,03617 Del Sol Avenue,94,98-285,
6c27c2c5-9be1-45a0-a3d8-384f4e9fd139,Svyatogorsk,6 Charing Cross Circle,26,,
6551a334-fc78-4eae-9211-d5f4d3424079,Baishi,81 Emmet Point,329,,
dda2e0c6-3d8d-4956-a485-006c60af3342,Morelos,0 Almo Crossing,889,62577,Morelos
d7775cc0-315d-4c1e-8087-48b321b70973,Oslo,65 Knutson Street,27,102,Oslo
0f4067a1-abb3-423a-ab02-75f30c6e1194,København,79235 Summerview Lane,0,1058,Region Hovedstaden
91967514-1325-4158-b8ef-fc2074db0562,Liangzeng,47 Kings Junction,2,,
877fc9ff-882a-420b-a6a6-b8dd0377b74a,Yuyang,4785 Erie Park,0,,
9a6bb56e-136e-4864-91be-5a1c9cdecefe,Cuenca,165 Shasta Point,8,,
579df58d-30b4-443d-ab4c-74049dc7887e,Fangzheng,143 Ilene Crossing,2,,
e4bfeb3f-4854-499b-81ff-1b8782312c13,Tangzhai,60 Eggendart Street,7,,
26ce7fc2-4107-400d-9114-21f9d300385d,Kalamáta,3082 Dawn Circle,9920,,
c8c81316-d001-4092-be8d-3281ee0e716f,Guayabetal,83800 American Circle,3917,251857,
fe648e08-c1a2-4969-85a4-191040aaa653,Gizel’,85 Delladonna Drive,3746,363125,
02bb256c-7724-4f64-ae0b-a108e4919d04,Youfang,9 Bluejay Junction,66,,
7aff3c9e-70d8-49d3-9e12-1474feec459e,Lávara,66 Loftsgordon Point,0,,
440d5f82-356b-4f76-bce1-7b4dd8e8590b,Xiumei,1 Northview Hill,85051,,
e9773184-9878-4195-8a37-820338959f24,Åby,026 Sachs Hill,36,616 32,Östergötland
1cdbb22b-05e3-467c-9998-fbc19505720a,Yunshan,0 Scoville Lane,3,,
56c1af74-0c98-49b8-92ad-5b0408884c57,Jawl al Majma‘,5 Fairfield Park,37082,,
e5cf7fe1-c9bc-4fe5-a49e-d89bf4fdcceb,Xingang,22 Arizona Park,1,,
8a817384-46ee-4804-a13b-87dec4b2e994,Montgomery,398 Cherokee Street,7,36177,Alabama
9c638c1e-4292-434d-ac04-7ed3c311b2d5,Ganhe,3801 Ilene Drive,18386,,
a92f4dc2-1fec-4601-9569-cb5b522f0f23,Dongfeng,5800 Ryan Avenue,64,,
881d8ab3-b16e-441c-b852-2c688cd536a1,Liangshan,37801 Algoma Terrace,62207,,
99751b43-bff1-4e0a-af70-1c1d0bb4b5d5,Shazhenxi,4 Carey Point,3505,,
7946b7f0-c14b-41d3-8f6f-bb76dc9d138f,Hadyach,453 Kinsman Crossing,8850,,
2f49c3d2-000a-42a7-8f16-4bf8338cb4ab,Buray,342 Derek Hill,864,5020,
bde38ed8-2d5b-49b9-a26d-ff87e78b963c,Nemuro,1907 Weeping Birch Court,2434,321-2342,
e2691cf6-3515-4ed9-800e-f6427a4789af,Banī Zayd,8 Ronald Regan Parkway,9,,
628d1962-ee3d-4ac6-b841-986864c5d3ce,Zhoutian,42476 Shopko Street,7,,
062a9be9-c4d3-4f9c-b2db-c7a4452af3c9,Funga,8908 Stone Corner Hill,587,,
f7f76104-f6c6-45e7-ab58-d8f2c886e8a6,Melchor de Mencos,22 Pankratz Pass,29559,17011,
db8952da-405d-499b-8587-45af5b8d518e,Sainyabuli,1662 Artisan Center,66,,
c14c2b9d-bb57-4c02-9abb-a5f260193c0a,Johnson City,7 Rusk Road,40,37605,Tennessee
2227782a-2c86-4cc1-9437-7a4f750b9a72,Lotoshino,191 Schlimgen Park,81,303508,
ec063a15-2129-4e05-a12a-f7be1eb49f3b,Aleksandrovskiy Zavod,5386 Monica Court,6,356024,
85890d53-3335-4ea3-98fc-e365f2ffd1bf,Gungguh,77841 Schiller Circle,8383,,
b89302bb-3c75-4eb4-af2c-8ac3b194d6cd,Xinglong,04 Old Shore Court,76,,
5569494d-4627-48f2-941f-01f60502d59d,Huangsha,5123 Truax Pass,61485,,
4d7f0421-3685-457b-8451-d828ccb39840,El Mirador,41295 Graceland Place,1,56564,Mexico
c46facf8-19e3-46d7-aa69-a9705be96ea0,Vanves,0735 Brentwood Way,71,92174 CEDEX,Île-de-France
a55e203b-ffbc-4009-9c04-0830fee46ac4,Soho,10926 Heffernan Avenue,858,,
ef23ba91-4cd4-4ffe-bcf4-0a3a0d2c8cf6,Krajan,663 Elgar Way,93317,,
8feab422-4070-402b-8b45-ce5db7a680e6,Pengembur Dua,3614 Golf Course Hill,23345,,
a70c1cfb-cb11-4122-bf8a-24dba1739c4b,Pālang,4744 Michigan Crossing,81,8040,
ecf2b6ef-35e9-4009-90c4-5a3dadabb247,Mutum,4 Melody Drive,110,36955-000,
74840512-73e7-404a-8e90-608e74d6b683,Łomazy,7 Reinke Circle,64168,21-532,
71248893-9609-4450-bc04-f291499039b7,Sharīfābād,193 Luster Place,2,,
63df2a03-ae76-4fd3-ba10-5e9ba9101cee,Quimbaya,4 Ridge Oak Park,56139,634027,
c40e3d6c-164b-4aeb-bc77-4707965f882c,Lais,79695 Crownhardt Center,9,9601,
d5adf516-6276-4743-b8cb-b14f6eb6c60d,Fuyang,76 Mayer Trail,410,,
7afd2652-c03c-4836-babc-fae9d7453d88,Bulungu,4962 Canary Drive,6,,
c621e31d-f6e2-4a9b-b366-83edaa0d5669,Mijiang,4043 Valley Edge Parkway,8091,,
a4082af4-2762-410d-9f45-bbe7f1cd91f0,Saint-Brieuc,267 Crowley Street,80,22004 CEDEX 1,Bretagne
db84c37f-d3f5-4288-a215-46d0898d3812,Shushi,0 Bay Street,6,,
26986473-78db-47b0-a742-533a8fcd5db4,Qiting,81886 Vahlen Road,7,,
21f1595a-e8b8-44f0-9f06-29bd579856b7,Capâo Bonito,8 Talmadge Pass,20,95000-000,
a0b03d2e-8da0-448c-9175-d3951b1463f5,Kochenëvo,599 West Way,463,632643,
00390297-13c8-4aaf-8b32-44e6f314cd1e,Zhangdian,2 Vahlen Center,25,,
d92504ec-3fe5-4adc-8e04-c794fd348b2d,Xincheng,0012 Melby Crossing,54,,
6b7dd9d1-dee1-4879-8eed-28389a62396f,Obonoma,70425 Bluestem Road,14,,
0ecb6a51-6ece-4e73-87df-bcff81b73963,Sendang,09025 Lawn Plaza,93921,,
60a297c2-3938-4571-8ce7-995670be9996,Gandara,2245 Montana Parkway,17371,6706,
97954277-6e43-48f3-b0a6-c9e860bcd455,Rudnya,688 Hazelcrest Hill,93783,216790,
9b77a4ea-f419-4fb3-ad9b-329377166224,Bakung,11 Lighthouse Bay Terrace,4727,,
0be91cdd-ce03-477f-9fe5-7619cad69eb1,Xinshi,727 Rigney Avenue,45,,
a380654d-f1c2-41e8-8b4e-c0518251c575,Matelândia,4889 Birchwood Point,2,85887-000,
b3874072-04d2-4b99-bf99-f07386707fb5,Zielonki,437 Eliot Terrace,5,32-087,
60d530e2-b0c8-4659-9856-c55e87713a1e,Bāndarban,7479 Crescent Oaks Plaza,58200,3863,
c139411a-721b-45c1-bfbf-86690b3491dc,Hamanoichi,32241 Lien Lane,7576,870-0002,
f69f3437-8398-43af-80ea-ae2b6e24bf97,Leiyang,70276 Meadow Valley Hill,4,,
d0015856-e689-4c41-8413-52e7cd7ddfc4,Slatyne,7 American Avenue,6451,,
643fac5d-c0ec-45e2-8ea9-c5928b126c8a,Sankera,78138 Ryan Trail,7,,
104955b3-e224-4e81-9a16-bc8dad95660b,Duran,21 Veith Trail,128,5813,
c5d246a0-3eda-45d2-8a95-c77738db91b2,Honghualiangzi,97109 Hovde Way,7,,
730219db-fdc0-43d1-bb22-382c021f45c6,Tonshayevo,549 Sycamore Road,82,606950,
3414b77f-f46d-4efa-87b1-3b0d1b7ab899,Chipyela,83796 Cody Pass,98011,,
4980855e-e0a5-4cc9-a944-64ed533dcdc5,Umm Ruwaba,7 Anhalt Place,84221,,
77656011-f8ed-4e6c-baad-a5b9b6aba5de,Kronshtadt,85 Scofield Alley,42,197763,
177b397f-d596-42d2-830a-338188ce1d54,Lucban,3 Maple Wood Circle,20,4328,
1fc9a41d-5289-4711-af44-2a9e26ef5110,Rizómata,5 Sutherland Alley,594,,
54125292-345e-4f53-a2a1-90fd8ffda99d,Vitória da Conquista,9 Shasta Drive,49391,45000-000,
2558e7f3-061e-4382-b88b-f185f025a71e,Sampungu,99207 Thompson Street,322,,
42f93dfc-417a-497b-a836-074cbec36bea,Matoupu,749 Mosinee Crossing,4,,
8c7a1325-95a6-4c3c-a12d-655e103f388b,Fuyo,5 Chive Hill,9765,,
a1236b6a-c03d-46ee-9956-10f1fab85146,Tissa,26 Veith Plaza,8,,
5760d4ea-0c05-48b2-bc9f-fb35f3892559,Gameleira,1 Trailsway Lane,8844,55530-000,
4d4b42c9-8b00-4b06-8aa1-7273d7568374,Tatarka,738 Ryan Road,59689,356235,
c27706d1-ef7b-4bb6-92b5-19653a807622,São Bartolomeu,749 Moland Lane,5837,9700-505,Ilha Terceira
cf6fedb3-719d-4293-81c0-54d294b14eb7,Hejia,3 North Alley,8,,
9c256b2d-5029-403d-a1ec-f444daa02a87,Razan,3890 Loomis Pass,245,,
56a9332a-7b7b-48f6-b4ae-988c1f949b46,Sundsvall,3871 Milwaukee Place,6,851 72,Västernorrland
3a53a821-04f0-48d3-9717-84106ac56689,Taoyang,5 Sugar Way,1670,,
d5d80d52-a6f1-40c7-82f0-6b3444c71e16,Benjamín Aceval,265 3rd Trail,6821,,
ea3777fe-ab28-4d40-a34e-4c163b9bb88e,Tulyushka,93886 Cordelia Alley,6239,665321,
92702ce4-4660-4744-8bd1-7453ffde827c,Chorotis,782 Katie Plaza,84,3733,
2c3d042a-d00d-4ecc-85f3-a1ab71ef1533,Motrico,060 Hooker Center,7376,2826,
e8d22026-e640-4981-969d-2f9daf0c3a49,Chãos,627 Mockingbird Crossing,576,4830-813,Braga
8f007254-2966-49b1-a30a-0625549d4438,Rucheng Chengguanzhen,75245 Montana Place,2918,,
7482661a-6704-4c0c-ba64-b892d5373c1c,Kingston,19414 Rutledge Avenue,35,,
fbdcb8b8-5508-4203-81cc-ff856cff7791,Shakhty,06740 Delladonna Place,1,346530,
faa6e4df-a026-4823-b7e1-f547120897f2,Ząbkowice Śląskie,8 Straubel Hill,7,57-201,
9646a781-01a2-4b7b-a5c1-f1a57a5abe85,Tha Wang Pha,630 Dakota Parkway,723,55140,
4142f41b-0ea3-4a47-8687-78980b4b0780,Jeffrey’s Bay,4 Gateway Court,919,6332,
5577ed31-764b-4963-a753-6599e999e9f6,Verkhniye Kigi,07 Marcy Drive,38,452500,
cfaec4fe-6114-448d-9238-8883b79ecfa6,McKinley,86709 Havey Terrace,75694,6214,
a5044dfe-a7e3-4701-82d0-d8ba94ffe3dc,Ełk,85 Valley Edge Lane,44,19-305,
810e0114-b279-444f-80d1-2020cee890f9,Chefchaouene,33358 Schurz Center,49,,
615c3346-6151-4e04-a71d-1a8c891c19fb,Padurung,5167 Meadow Valley Road,86,,
9c965b65-01d7-4a8a-ae1a-6161f9315c09,Gongdanglegi Kulon,72 Fieldstone Park,933,,
5d426e54-3f1b-418c-8a06-42602e7049d3,Pata,5 Buena Vista Place,2,7405,
81be4171-72ab-4de9-8567-a50059d0da69,Mandera,46 Northwestern Place,13030,,
6e747352-4a5e-4001-8952-f9e99835c28a,Padangtiji,5 Bellgrove Drive,12186,,
0881dc20-b66f-4adc-89a1-cb01f7f1710b,Núi Sập,121 Saint Paul Circle,8476,,
c86f96f9-2f7a-422c-97ea-5e51f2145fcc,Bagiktinggang,77 Mandrake Court,542,,
46caf661-d0be-4781-9f55-48df0a33286c,Melbourne,9 Pepper Wood Road,171,8383,Victoria
50c3c188-39c4-41a0-8856-e4413e333fba,Kraków,9786 Stuart Parkway,524,31-999,
fe3b1232-2e80-4068-afd0-5c280c0049c2,Lubukgadang,48819 Hauk Road,35,,
1a71eb89-da6d-41a3-8865-2a4b33d9e7de,Ortega,499 Sheridan Crossing,6,735517,
62a759e7-3207-4bfd-b1bf-30fa617aa131,Papilawe,707 Grim Center,8,,
e7a98dd2-0d67-469c-9bfb-55394b1bec47,Ludwigshafen am Rhein,61 Truax Plaza,25740,67067,Rheinland-Pfalz
2923b483-6bad-48e6-8d55-2d5ed6fd1109,Kowang Utara,4949 Hayes Road,2,,
014d0497-59b4-4904-b5eb-a743bd688c5a,Oxford,15061 South Lane,20910,K7A,Nova Scotia
50e6b5fb-3d5c-432f-85f9-dc1c5ae0981e,Campo Formoso,25759 Schmedeman Road,8116,44790-000,
b5db72f2-6c80-489a-8e0a-205e6b654030,Contraalmirante Cordero,16 Cardinal Crossing,3,8305,
5f918607-cf0e-4e49-8bef-029d13701053,Baziqiao,80 Thierer Drive,4,,
f9fdab94-57db-4189-99e5-f041d2a4898a,Ngchesar Hamlet,024 Jenifer Point,5118,,
7c7986c3-83b9-4e38-a795-6470d381b06b,Norfolk,2 Fisk Avenue,4431,23504,Virginia
1121e771-f159-48b0-b9fe-0cb5b0becfba,Labuhanlalar,52031 Dakota Plaza,694,,
0b0dd0d2-c83f-475b-8616-8d0ce563ea48,Huangqiao,939 Prentice Drive,8985,,
f6c17091-c396-41df-877c-22e85b113c52,San Juan,55158 Green Ridge Place,8,56030,Mexico
733fe8a9-5656-45ce-bf47-04dfd76de81d,Lille,1988 Brentwood Alley,56467,59865 CEDEX 9,Nord-Pas-de-Calais
b1fe1dca-4652-409b-8436-e9fce78826f6,Stavanger,933 Anthes Avenue,41,4015,Rogaland
25c54191-37d1-462b-9e50-7b5d2716788b,Qianjia,25531 Lyons Place,36,,
d1034802-543b-4538-87c5-c4dd1d902410,Kislovodsk,417 Brickson Park Terrace,705,357748,
b64f4bde-a15a-4b03-a45e-88211525ba91,Maní,107 Montana Point,554,854019,
331066d9-cecb-4071-89a8-971703051874,Saeul,6030 Dennis Place,1926,L-7506,
1a2f4bf8-b9dc-4eeb-a0dd-fe24c6d4df2a,Chillán,0642 Susan Crossing,35768,,
3db4db14-3b6a-4683-a6c5-52ee76e245fe,Abadou,64110 Magdeline Terrace,6,,
f771912c-76de-4a11-8e6d-6ddc7f90cb61,Changhua,2381 Del Mar Avenue,8,,
390f984e-2d70-4e46-b033-379f903a2c9a,Farkhor,08 Laurel Pass,63446,,
af1aa21e-ccd5-4b86-82d6-6d5eb4fd1216,Colima,0794 Starling Drive,9352,11305,
900c2a38-6f4a-4596-b5fe-9bfa51609298,Panyarang,0 Butternut Street,75795,,
51ed8232-4b82-49a1-a85d-72f44e4dbd2b,Indianapolis,749 Esch Way,876,46278,Indiana
40aa5d31-6086-4bd6-9003-a2076f577d54,Astorga,17168 Golf Course Crossing,92,86730-000,
07e06cf4-ec0b-49dd-b417-df24962e8a3f,Bau,45802 Washington Drive,7,,
e1463938-8eb6-4726-960c-84d87e9fbf15,Getengan,2 Sunnyside Point,19968,,
2eeaa1f6-92d1-4aae-8b9b-71d0528df346,Cotuí,9 Boyd Park,7644,10516,
16f66c39-5ea4-4fba-b47d-55b77af09f15,Malšice,726 Brickson Park Alley,34,391 75,
43f611f7-0088-4235-9d30-4908e13a13d2,Tengqiao,258 Anhalt Center,36334,,
55e7ded3-7c04-4e7c-9843-38ac9cca43e0,Yeniköy,43 North Parkway,2,45600,Manisa
66d2ee9b-5021-4b43-9334-cc2b4fadc98d,Fort-de-France,75 Canary Alley,59,97204 CEDEX,Martinique
9cc20bbe-b496-4c85-b8a6-625745287f78,Arvika,09 Badeau Parkway,64989,671 41,Värmland
dc50d413-ec9f-4659-99ff-6ce2f1f8f26c,Parungjawa,961 Village Park,7824,,
ee935d60-58a8-474c-83e8-6590084a4a18,Poigar,9 Fieldstone Road,98961,,
556c6e3a-3c16-467d-941e-7c04d8c1d4bf,Shagonar,3 Loftsgordon Point,978,668210,
781064f3-bdfa-4ec7-92bb-c14a414ddf9f,Bahía de Caráquez,684 Hayes Drive,2,,
6bd53a40-03f7-4bca-b501-606e3cc36ba4,Carora,20 Scoville Alley,374,,
a8dde5ae-3ebf-4023-a0a4-08e2e26f7da9,Peristerona,161 John Wall Drive,313,,
b1235732-c23d-4a86-ace7-fdac9fa92ce1,Daji,3 Pawling Circle,90517,,
ad994853-902b-486f-b706-fa2edc97b9cf,Shigu,86904 Florence Parkway,4,,
54500eec-9b1c-4002-8894-bb71f91353b9,Sangongqiao,695 Mcguire Center,16405,,
3faaa5a9-9333-428d-a090-7cd1872c5360,Cândido Mota,68 Moland Crossing,542,19880-000,
0c864f39-9a75-4526-b636-7ea0ffd3958c,Zuyevka,685 Upham Lane,7270,612412,
ce8566dc-425f-4018-8616-c1ada6f6a4e5,Zabrušany,9858 Sauthoff Alley,1005,417 71,
f21e1ecd-9ba8-4295-a8e6-67de575f0aee,Sarzedo,7344 Bunker Hill Avenue,0,3300-405,Coimbra
02b78348-c107-4e4a-8ee2-03603c0e0dd7,Neglasari,840 Hovde Junction,436,,
4002b58b-fadd-492b-9afc-43089bed7b77,Hlusk,9 Kenwood Avenue,2,,
5058bb44-54ea-46b4-9726-62891109a879,Sadabe,6 Towne Point,9861,,
f8bd45a6-028c-48ec-8dea-6b78675f2e9c,Houston,78469 Warbler Court,851,T9G,British Columbia
04bab987-4b8c-455e-ad3c-66892ea79ab3,Dajin,18974 Sloan Crossing,6545,,
84188c02-0708-4c13-911a-116bbfd64a95,Pinheiro,04 Texas Hill,9945,4960-254,Viana do Castelo
2f9e0ba5-49ad-45c4-b93a-60d1f4257430,Belanting,59233 Golf View Plaza,7,,
3e372976-7672-4337-ab83-aa030fad6ce5,Lengkeng,25 John Wall Park,9399,,
ac48c0df-2ce4-4bcc-87f7-a859f3a71576,Inírida,84 Michigan Park,8390,940028,
206bd952-a31a-4d13-9288-590121f06c35,Hengshi,17016 Park Meadow Street,5257,,
9a38b348-a73e-40c4-b5db-95d6e9915ff4,Fatumnasi,8725 Old Gate Circle,656,,
4f1665ed-45b0-4f80-8667-77da235f2295,Szeged,515 Bultman Street,2,6728,Csongrád
a58de1a2-8fd6-4305-b4eb-10788cb28e06,Ape,22 Continental Park,28,,
bd0a1df8-2322-40ac-9554-7a754fc055d9,Yessentuki,75 Dottie Hill,14,357637,
6a8f0e5e-9418-4a34-a355-23b206b80800,Yanhe,73 Bay Pass,4,,
7e04171a-87c0-4a16-8e56-fd24238a188c,Dagsar,008 Carberry Road,29,,
9d57470e-5e8e-4f73-9fd7-6485cd95add8,Serh,87406 Sundown Crossing,2041,,
b16c04af-b0d5-4462-bfe4-08dbe20a50cf,Charlotte,1352 Montana Plaza,972,28230,North Carolina
594b90c7-3717-4b16-b1ae-7db1613792c4,Pinhão,15 Village Road,73029,49517-000,
745a8e09-e2ef-453f-9de8-d316c904e5c9,Aoqiao,8 Bashford Plaza,5792,,
ae965b98-4302-4cf6-a878-c13e1d32e914,Cayambe,4 West Court,28,,
4b37eb30-5fc6-401d-a83b-8ccce5318faa,Abomey,713 Utah Hill,5423,,
b98053ff-0ee8-489e-b195-6aa0c8ba2802,Warburton,94 Corry Drive,5,39180,
8970e513-ce10-40cf-b025-cab6c9bd26c9,Nelipyno,62067 Grasskamp Way,4728,,
bdfe971d-4239-4d71-b54a-7e017617964c,Al ‘Azīzīyah,6370 Sunfield Street,2,,
0491feb0-02b8-44a6-9463-f59cb9ac811b,Salamina,91810 Dennis Circle,9,477047,
5d5823f3-3859-44e7-bc04-001a35169aeb,Río Tercero,6 Algoma Circle,8464,5850,
4ecbe444-d69c-444f-8285-535de767f4a7,Atap,3479 Columbus Drive,189,,
9574e3d2-055e-461f-8bfb-8e614cb4b519,Shangyong,0273 Cordelia Place,3,,
3ca4e406-9676-47c6-8cf0-04b06530145c,Al Qanāţir al Khayrīyah,35680 Bonner Pass,86351,,
2b4912d8-30f2-4918-b0ea-28dbcb91bc33,Gołkowice,42315 Continental Pass,71044,44-341,
4a2aad48-2250-47ba-9577-0b6d10df90b0,Ol’ginka,98 Colorado Alley,40677,352840,
d7e66684-017d-4459-b34d-e8df73b40125,Yakutsk,7 Homewood Trail,266,677027,
43a8924f-a54f-4e90-a3a6-a4fed3cf6fbc,Thị Trấn Hà Trung,424 Vera Park,7353,,
d375c914-e687-47df-a219-8c9485655083,Palaiseau,4 Columbus Alley,4178,91129 CEDEX,Île-de-France
ff0aab3c-9761-4955-b379-cd0e864da037,Roldanillo,77 Erie Plaza,9958,761558,
e6e167d6-6af0-495b-aa55-e56f65998b7b,Polen,60457 Sage Junction,149,,
77ca83ec-29f8-4b28-8c2d-4513b82e6598,Ayapa,2 Hintze Road,29475,,
d9697680-c129-420c-85e3-08431b235c55,Zográfos,42812 Kensington Junction,554,,
370bc3e1-633e-40be-a4e9-42a05b9fc1e3,Diyarb Najm,7228 Gateway Avenue,256,,
6fab820e-1b9e-4b0c-937e-053ac04414f6,Opaka,1 Kedzie Terrace,500,7844,
920f4519-3106-49ad-82e1-3f6d8c5709b9,An Nāşirah,917 Lindbergh Hill,69840,,
bd87d71a-0c55-40e4-9bb0-ce2dc3dd91c3,Piterka,7 Forest Crossing,7,393995,
a8b11a7b-7f83-4b96-bb71-5f535681b791,Beijie,928 Raven Junction,8,,
f76e375d-b224-4961-a587-57704c052d4c,Kréstena,58983 Lakeland Place,254,,
3e6e7763-04fc-4c04-a030-569620397bd0,Jinotepe,4951 Mosinee Parkway,228,,
3518375a-5dce-4fa6-ae72-fb938604c62a,Nueva Manoa,71 Redwing Pass,1,,
c5e7f115-1016-4b92-8f73-850678cf25a3,Banjarjo,0 Garrison Pass,95672,,
0d114419-7d9b-4f46-a2b5-fd678fdec30c,Bungalaleng,9 Schmedeman Avenue,948,,
8b36dc9d-5a64-4707-a512-17f5bc1fbd03,Dakoro,52632 Bay Hill,221,,
3446a790-3556-40d5-a366-f11e0463c5b3,Huanghu,12 3rd Junction,22864,,
cc3b441e-c8f2-457a-a2d4-d54bad37e75d,Kamyanyuki,2777 Randy Drive,495,,
4853646b-e440-4c73-8046-e3ed47f57adc,Fosses,022 Anderson Alley,6151,95479 CEDEX,Île-de-France
cd7fb3e3-013c-4827-9ea9-c593d5afa3b0,Dortmund,12052 Bellgrove Court,22,44269,Nordrhein-Westfalen
ab9a1b91-1bce-4a35-9a27-73c8853fcf45,Jincheng,880 Graedel Alley,10227,,
926c6e0b-b4a1-4e1a-abdd-c2f5d0c220e9,Norrtälje,24 Blue Bill Park Avenue,9853,761 51,Stockholm
ea012767-eb41-4ec7-9e40-0855a9774a16,Nantes,23 Truax Alley,80388,44265 CEDEX 2,Pays de la Loire
5dd11a86-3864-4d4e-899c-6574326cf50b,Frederiksberg,01 Banding Circle,17,1812,Region Hovedstaden
4af294a4-42b4-491e-be81-c592908f269a,Sigay,12058 Dennis Center,75028,2719,
ff445362-8214-4350-8ce2-865eed81ec56,Saskatoon,8902 Hanson Plaza,391,S7W,Saskatchewan
88a7a7d6-69f7-4cb1-bc74-53f282e3bd51,Molugan,99595 International Terrace,1,9016,
2255abe1-5979-4184-9523-bb053a7e0ba4,Salamá,7 Knutson Trail,4,,
b5914969-383f-4b3b-ae95-84aabba3b3f9,Casal do Conde,6 Raven Plaza,98,2330-524,Santarém
f6d590ad-3673-4f30-8259-a0c140dfb7ae,Kirzhach,5 Glacier Hill Park,9905,143026,
a8ded6a9-ccf6-4e11-9584-c1d42b903d69,Tegalloa,441 Kropf Pass,9263,,
6535938d-60bf-4cdb-9a8b-957e19a31145,Obrera,966 Erie Circle,31391,32050,Chihuahua
f5c72c98-ed93-4b06-a707-017fd0bed7d0,Dallas,25 Comanche Street,8,75265,Texas
1a403cc9-c9c8-4772-8cdd-dc19b799851a,Hekou,6863 Quincy Pass,983,,
bd1a7005-890b-49cf-b089-3135236eb251,Phú Vang,680 Dayton Alley,371,,
21a35ea8-7d2e-4562-a229-a80b1b9740b6,Gunungsubang,7 7th Junction,6237,,
a96fb2e7-d548-484f-904f-65bed2f35f5c,Jaworze,5707 Union Alley,5402,43-384,
b77817ec-ea3a-4643-ae94-c233a19b598b,Cachoeira do Sul,2 Wayridge Hill,901,96500-000,
755471c0-c7ce-4044-9b9e-89afa3da1eb1,Eguia,72 Florence Pass,2,8424,
e682a1f5-6ab2-4428-835f-8fad7785bc60,Monte da Boavista,9 Esker Avenue,32060,7100-150,Évora
6741cd83-6938-4b30-b807-fa1e72ca18ca,Karnice,046 Raven Circle,14774,72-343,
2e59f70f-9acb-4d47-966c-93f1d88550c1,Lộc Bình,9 Vera Drive,103,,
1d094518-5fb9-439a-9970-5f2ac41f8bed,Huineno,66116 Burning Wood Lane,430,,
0e0a3633-cd8e-4f84-a65a-1dca2763473e,Abovyan,093 Armistice Street,80,,
759f5863-869b-4f40-9d7d-4f6df9484571,São Miguel da Carreira,1704 Miller Way,441,4775-055,Braga
20e5adf9-8787-4e25-adb8-00e35b234b92,San Miguel Dueñas,58 Goodland Terrace,24820,3017,
80624552-a7d9-4147-a9b5-805677281ec6,Cakungsari,912 Mallard Crossing,73,,
0c6d6eec-a7e9-426a-94ea-7dea434f01a7,Palmital,808 Center Court,98466,19970-000,
93d9e62f-c978-45f3-9691-0320ae43ef67,Iza,1 Florence Alley,8395,,
f754ef81-809c-4f08-a845-3958f46b60af,Parakanpanjang,5 Beilfuss Trail,513,,
1f82be74-abe2-4363-b62d-ff1f88cc28d8,Karangnongko,46325 Ramsey Plaza,4898,,
60c094ad-ed12-4a94-824c-fb19003febb7,Njurunda,228 Scott Alley,808,862 95,Västernorrland
a6e93d5d-d1c6-4704-8450-8c0ccf23d60d,Castanheira,87 Vahlen Point,11662,4615-310,Porto
66896668-71b4-4037-a428-45b38b513937,Acopiara,42 Katie Plaza,4530,63560-000,
fb7dac1e-c216-4979-acb4-26eb094b4f2e,Stara Pazova,1842 Pleasure Park,2293,,
044c6415-28b7-42c7-877b-4657b36cf39f,Jinxiang,538 Golf Course Center,7,,
244a18ad-4ebe-4b27-b64b-b72421bad048,Kitahiroshima,6 Browning Terrace,71824,349-1111,
fe12a12c-eab4-476d-8c14-40856400c4a7,Reriz,9389 West Park,1944,3600-587,Viseu
670f81bd-ce60-4002-b59e-fe11e6b6207b,Taoyuan,078 Old Shore Park,8,,
32fbea59-e297-4537-90b4-74cbc4bb7199,Öldziyt,5961 Garrison Lane,98380,,
6ecc0fda-8af9-423b-b861-098302bccd58,Tatrang,04380 Katie Lane,55115,,
37648c36-e17c-408e-998d-579d86139b0c,Thiais,284 Eagan Park,62,94657 CEDEX,Île-de-France
36ac44c5-a05e-4288-8198-13d1a4670fa6,Benito Juarez,7106 Pepper Wood Court,619,27443,Coahuila De Zaragoza
6708731f-c5b7-4dff-8117-df3c70bff080,Shahkot,98038 Hanson Crossing,488,39630,
3b0041c2-796f-444f-b7ee-8a7c5d2b5e19,Gornyye Klyuchi,37 East Center,8178,622012,
a4c22783-819b-4d11-b805-7cfbd44ef17b,Miðvágur,65 Blackbird Way,39684,385,
3a172b3d-edfa-465c-9ce0-22c958dd10b2,Trảng Bàng,6113 Florence Court,71601,,
445a5562-fe86-4261-9dee-22ee5f7547d9,Douane,7080 Pine View Park,98,,
6a4d58f7-e0ee-4bbb-bf2a-786e824a3ea8,Derzhavīnsk,8 Kingsford Parkway,17,,
3f91ff07-bc3f-4490-b953-3a1c1af283bc,Dayapan,9781 Pond Court,31793,4211,
3772122e-c204-45e7-98be-4c0e1297b5de,Överkalix,3665 Corscot Hill,6925,956 93,Norrbotten
338c3cb4-997b-4c00-9cf8-7be25c872436,Nancheng,2 Thierer Avenue,96568,,
20cb45e7-03aa-4344-b88f-449e61dbd616,Maslog,8 Ramsey Junction,38,6820,
2c0ecfe1-4778-4645-b5e5-4fef5ea0c6fc,Paris La Défense,61 Dapin Terrace,8000,92907 CEDEX,Île-de-France
0f331ef6-ac39-4dac-8b7e-bbb9d3f77fc2,Sumbuya,9804 Donald Parkway,502,,
51e93e53-276f-4c44-b22e-6b1adc9c2122,Avlónas,215 Morning Street,18798,,
8e584c61-1a1b-456a-a921-14fb3869930c,Liuhe,7 Ilene Way,93,,
79a76c94-b9a3-4318-bebb-0d2f12084816,Rače,04 Graedel Park,25,2327,
a44c6979-880c-4363-8f63-51319dcf7f22,Coolock,89 Schlimgen Pass,2,D17,
adf8e441-03c4-484e-9282-8a6f924757d4,Yingyang,56269 Longview Pass,22519,,
79fc93d9-cd1b-402e-8f15-4fd2ba98cdb4,Tongjing,337 West Way,50844,,
0594f390-3003-4fc0-8cf0-8aaed5d8e378,Balyqshy,4 1st Trail,95,,
57dd75a2-14cb-4f3c-93e6-1b7453407d42,Alameda,6 Esker Terrace,17167,45630,Jalisco
be8f8cb3-592a-484d-a11b-2b1acaafcb7d,West End,1 Hoard Street,8,,
8ae8b380-6c3d-4ab6-99ac-70d2890c7a73,Torres,90 Elmside Way,48376,95560-000,
770fe467-368f-4980-bf21-0d894acf2761,Dengzishan,00890 Brown Point,9,,
64ff69db-6d88-47e0-9569-1f0aa7149d9b,Quyangqiao,52 Coleman Circle,8680,,
a16d00cb-8a11-4a05-ad85-eb5da727a29f,Subotica,07 Corben Junction,42,,
f912f928-0f84-4bff-a52c-b9e0f029138b,Radom,2 Warbler Junction,362,26-640,
7988292b-d726-46f8-8958-d819e974acb4,Banjar Anyar,6 Graceland Alley,92271,,
f7c9ae5f-5022-439e-8f3f-66f596411804,Bumba,63 Mandrake Place,970,,
08601029-80b9-4169-8ae3-c7cc46a4c4ad,Sens,47195 Vernon Place,46838,89102 CEDEX,Bourgogne
fda4593e-fb96-4785-9b4c-ff8a60375f50,Tupesy,2 Rieder Terrace,827,687 07,
dc91c005-7f75-4e57-8ff9-df8730a3ac4e,El Suyatal,87 Maywood Avenue,9891,,
7ef26188-20f7-4710-9334-fa07c5934280,Hongtu,0 Sheridan Hill,0,,
24e9d5e3-4a70-498d-980e-79ce7c9aac2e,Onsala,9 Blaine Place,9,439 37,Halland
59159c27-c4d6-4532-bc40-05363571b7f1,Pedra Azul,8460 Prentice Crossing,86628,39970-000,
7352b0c2-7ff8-4cd6-8203-c3bac2b0886f,Bara Datu,8 Dryden Lane,756,,
e13bed04-7b50-4e77-811a-8409e14c5581,Zaragoza,4390 Straubel Terrace,2,26930,Coahuila De Zaragoza
33843324-0033-41fc-a32f-2b455386ebc8,Babakanbungur,99 Dawn Trail,700,,
8257fa2d-d094-46a3-a896-749cceef53f1,Leloboko,67 Mallory Alley,60,,
a2319312-8fdb-4a20-85a1-6708429274c0,Soavinandriana,4 Northview Pass,88,,
32cfa605-a38d-47e9-b756-6d3df6d845fa,Deshan,82168 Utah Center,40,,
9681a07b-cf7d-4372-ad4b-da994ad9a737,Dongli,02082 Huxley Alley,4,,
e003a8e5-8761-4af6-9fb3-9529d72f78ca,Houston,6820 Northridge Court,9618,77288,Texas
1463ee08-94f7-4d07-a705-fa7a26f8cb1e,Gradizhsk,91611 Westerfield Way,90059,,
d89ee649-53b3-47d6-9324-14b4d25ff642,Vodstroy,67 Warrior Alley,8,400000,
6222923b-31aa-4724-b9d3-e5046bcf1368,Zelenokumsk,78 Lien Lane,94417,357919,
73d2d548-b16b-4a55-8c3b-8f1c1a7ae12f,Stockholm,76053 Garrison Crossing,700,118 20,Stockholm
5422327b-f8fe-447e-8450-cc926569d05d,Keyi,45 Sunfield Pass,48,,
442f9866-59ba-4c31-b8e9-b6a5726e8363,Tomioka,5 Rutledge Alley,82420,999-8524,
2f5a60aa-2c02-4ac0-87ec-b020039a7bf8,Antequera,20856 Thackeray Center,7607,,
efee9b49-f950-4baa-9a46-15d74013ce67,Barra Mansa,61 Buell Hill,3,27300-000,
eebe9e05-576e-48d8-9b32-a2a93368795b,Dangshun,404 Red Cloud Way,8474,,
8e647707-0a2c-4d95-be1f-f4c4bd93fca7,Banjar Pedawa,9388 Sheridan Crossing,2,,
91a43514-ab10-41b6-b4bc-5935a3087f19,Kanoni,5 Pleasure Junction,244,,
a9d07198-c2f6-4a28-8d80-85aa931846a9,Wuduhe,448 Fremont Street,7,,
7457b738-89ed-4f14-9ac6-8f1510257ce3,Bay Roberts,89439 Hanover Crossing,6109,V3B,Newfoundland and Labrador
74c021db-bc9c-4957-885d-e813af354216,Aţ Ţafīlah,5525 Florence Parkway,1,,
7be88ecf-e282-4e72-8f05-3081272f79c3,Oslo,3510 North Lane,16868,806,Oslo
6b2c9aed-2be7-482e-9d17-f678b3de97a2,Sukamaju,065 Algoma Terrace,69,,
30a90fe6-f6fd-4d30-af14-cabc8d9386c5,Camacupa,9111 Sugar Street,36,,
9d54abd1-a1d5-4160-b1fa-366e49123486,Izvestkovyy,8776 Waxwing Trail,7196,682652,
da4e51d4-f75a-4a87-b878-a0b9f57327f8,Rego de Água,6651 Vermont Pass,901,2860-278,Setúbal
42790dda-925a-48c8-96fa-ce649fc32446,Hengxianhe,678 Fisk Parkway,2876,,
a587ade1-d34f-40bc-b422-3e93deabf77c,Santo Niño,6962 Morning Parkway,65,6711,
b3a322f2-9882-4386-bbff-54436606601f,Qiryat Yam,23371 Moose Terrace,92070,,
75644d9c-b8e0-475e-9255-ec28a1309b2d,Ngetkib,53 Dixon Lane,4,,
32e60a8b-64d6-4a06-8efe-55db1add440f,Nangkapayung,7546 Duke Point,67345,,
f2cf80ad-6a84-41f5-a49b-a93e5026c167,Fargo,822 Park Meadow Point,7,58122,North Dakota
b612d9e1-5eb7-4071-b4bb-184aa8288b5d,Villa Nueva,48191 Mallory Pass,54008,5903,
7abdb275-2e49-4e3f-9bc1-ef7c8d666314,Dyurtyuli,15386 Cottonwood Avenue,6,452320,
2ab2bac0-ffdb-4a27-b34a-7258d2e193e3,Cayenne,795 Stang Alley,6,97308 CEDEX,Guyane
219f3f94-478b-4323-a8d6-4ee04c486bfe,Peer,8 Hazelcrest Road,127,,
6b6cc70f-0f23-421c-b367-c3bb43aea540,Dengnan,8745 Donald Crossing,63450,,
23e9540f-8d60-45f5-a142-aeb23cd363de,Dongyangzhen,6987 Gina Circle,90667,,
4af016dd-9814-4491-aac4-cf563bcbbacd,Waiwejak,24 Erie Hill,55897,,
5a796f38-25e6-450b-9688-2b6ee0a91191,Lutoryż,1312 Lakewood Gardens Junction,1964,36-047,
53248793-33e6-4056-abd5-2031072c2685,Guyang,460 Columbus Lane,375,,
6e2c53f3-66c5-461d-ab03-3d8cbcda2689,Alpūrai,846 Golden Leaf Center,4,19201,
bbdeb4ca-fcdc-4779-853e-9bb8cc82688d,Puyo,03 Reindahl Terrace,3517,,
2355f091-584e-4693-88ce-5792771ae999,Villefranche-sur-Saône,59 Trailsway Road,5936,69669 CEDEX,Rhône-Alpes
a03fda8d-bef5-48ae-819e-2c249ef903a7,Ziębice,9316 Loomis Way,7781,57-220,
ec805d3a-cf37-4824-8769-99395b0deac5,Krajan Jabungcandi,323 Waxwing Circle,52391,,
88ce6974-8f61-453c-be9f-29a771fc084d,Dugulubgey,43670 Lawn Junction,15534,361538,
8a875e0c-4b56-4f72-9e33-beaaa89cf6b3,Magisterial,328 Dixon Street,9,29223,Chiapas
bb3908de-05a4-4c67-851c-c08dcd3cb889,Sobreira,2 School Avenue,4718,5090-017,Vila Real
fda6c79e-f727-430f-9a5c-c416c17f17f3,Brämhult,4 Farmco Park,8,507 33,Västra Götaland
7f74a19f-189e-4fee-b260-ec5a26a3e07b,Minyat an Naşr,4671 Rieder Pass,25,,
e1c82fe5-2435-4db3-bb82-af9556c64d9b,Pangawaren,492 Monica Crossing,5471,,
8eaadafa-57c2-46fd-9161-ad732ad04229,Luzern,43338 Becker Center,81204,6015,Kanton Luzern
a5a67eea-bdf1-478d-9c03-0e0681bb9eda,Ínfias,88 Di Loreto Drive,887,4815-075,Braga
21a3fc66-e415-4d19-bc02-3a8a2aa966bc,Jönköping,64 Evergreen Park,8,553 02,Jönköping
cdf5308f-2bdc-4092-8d97-552a36cc9bce,Tambov,1832 Shoshone Plaza,89040,392999,
dde4bdec-63e6-490a-9715-440813d4c892,Al Jumūm,1348 Caliangt Point,7,,
c1e76cde-3c79-40e0-8adf-3ee7fc08d11b,San Antonio,11 La Follette Avenue,58915,78278,Texas
a5ea5d86-782f-4469-9bdb-2510973bcda7,Calgary,95458 Chive Point,8,T3S,Alberta
4d15ffe8-2ffc-492a-8ac4-ca54f74b8fe4,Wangjiaping,6 Fieldstone Alley,8,,
6daa751c-da76-46db-a986-016c7f00afea,Älmhult,13 Loftsgordon Center,0,343 35,Kronoberg
766aac03-a26a-4b15-b5fe-54a19c660f95,Tanūmah,477 Colorado Point,29,,
4139f83b-6da8-425d-9a00-ff6c96890da3,Kroczyce,29 Golden Leaf Point,40,42-425,
8e723934-f04e-4eed-9fd0-ac9ceff5ac42,Naga,553 Spenser Terrace,6,7004,
e762efc7-3326-4093-a3e0-a457150a0510,Tottori,6 Darwin Center,296,969-1783,
9b08d8e1-31ad-40fc-abc0-4c044468ce1f,Pamungguan,20954 Dunning Crossing,30,,
f70db6aa-dcd6-48e7-bd60-cd502f646c90,Stockholm,536 North Center,96988,104 62,Stockholm
7d743734-347b-4c7a-ac58-503a6f6fb392,Tubli,394 6th Park,941,4031,
b3753305-da8f-42d6-b801-6b2c29d7b741,Independencia,9339 West Parkway,44199,30815,Chiapas
102daffc-ec84-4cc9-a2da-c418c3a0b79a,Pato Branco,611 Onsgard Point,33,85500-000,
01cfdc73-85ae-4d7f-97fd-056648630c01,Susanino,8737 Gina Point,825,157090,
1588c8ba-3410-4a5c-be52-d3ba1d17dec1,Leiguan,2588 Evergreen Point,46,,
c6e09869-b495-4b9c-8c51-e9c4c30c1741,Siem Reap,704 Carpenter Alley,741,,
3eada623-240e-412b-bf54-73c3ca5df221,Patani,43 Schlimgen Park,1351,,
a4c749ec-fa64-41d4-a770-723a5a03cd85,Eydhafushi,3035 Fairview Terrace,387,,
2412a659-350b-484d-a3b7-9443f0f192cb,Khon Kaen,00 Everett Hill,8,39170,
dd7090a7-79e3-41c0-97e9-67ebf2164ab3,Ichinomiya,65 Mesta Court,41902,941-0056,
83c157c7-9b94-47de-aee0-abfd07320e41,Castro,21 Utah Pass,56,84160-000,
5c98b99c-2c53-4b63-a80b-1bc98301037d,Riangbaring,6474 Sunfield Terrace,46,,
18d63c04-75d0-49f7-9c1c-85f4cfd84352,Fanzhen,77 Marcy Circle,32,,
7b53ab65-fb34-422c-af7f-941fa9dda457,Týn nad Vltavou,722 Corry Center,2,375 01,
5453b1be-4f05-40e9-8554-0656fa4467ca,Araxá,42 Barnett Avenue,21,38180-000,
3c7d4669-3502-4e28-a8d8-d82b3ccf99ae,Barra de São Francisco,17151 Quincy Lane,3,29800-000,
d921844c-74fe-4aa9-9306-8222dcd2632c,Mauren,5 Novick Drive,7,9488,
3dba3cc9-10c1-44bd-a561-f84fc3fa61ab,Visby,951 Helena Pass,34075,621 46,Gotland
f4d1f7c7-a94f-4057-9e12-5d64316f4e3d,Jalālābād,124 Namekagon Trail,474,,
f7ee751c-c054-46e8-8e9f-bffe7867ef62,Matingain,79 Golf Course Way,6,4211,
17246936-64cd-4795-ac37-e19406a20ee9,Mangunjaya,23 Cody Junction,1664,,
118cc708-e108-4273-a217-b04bd831a19e,Sechelt,169 Spenser Junction,598,K1B,British Columbia
c2cd6539-eb04-45b2-9f60-8cedaed46eef,Palmas,9031 Portage Center,467,77000-000,
6039fda6-6f04-40d6-8ad5-daf1f23fc391,Qizhen,08 Sunnyside Way,5,,
2c5525b1-68d2-4932-a3c8-12372010b6b7,‘Amrān,55389 Jenna Avenue,85,,
212fd7a6-6d27-44f7-b162-25fca1c21b2f,Stockholm,90983 Lakewood Gardens Court,20,118 20,Stockholm
bf171674-5306-4e3d-9ce5-3f441046861d,Nadezhda,8 Trailsway Way,941,658160,
588c49a5-f288-4f01-9650-18df8d621d04,Kayapa,95 Raven Park,3371,3708,
94a9a5ab-a449-47c9-95b7-6412117ea277,Aghavnadzor,987 Barby Place,4,,
33e859e6-c799-45f0-981b-4d67c8d97b7e,Nong Yasai,20 Everett Terrace,7,72240,
705916c2-b5f4-47fb-916b-84e00cc1b8fb,Tupiza,0179 Killdeer Junction,30,,
78aecbed-bf62-4ec6-b88f-7d52c4bd0d95,Jiangzao,66793 Sunnyside Court,29,,
93d14b11-d9ed-4054-a4c2-61bd1978a70a,Xinji,04 Comanche Lane,97,,
c2c980ec-ec65-43f3-acac-0ef3c8e27a5d,Łaskarzew,883 Ohio Alley,57642,08-450,
cfb49c78-ad2a-4e4d-89e4-2017effa6e50,Morelos,31 Elmside Park,1427,78130,San Luis Potosi
270fedb3-68d4-43a0-9f6a-fe794753fc10,Markópoulo,390 Twin Pines Hill,26,,
502d736c-e705-4b26-8f5d-a24ef62b3b62,Baltimore,3226 Prairie Rose Place,92216,21290,Maryland
2239ba4d-1e8e-40be-88e9-c28afcf5cf71,Grenoble,68 Ridgeway Plaza,6737,38816 CEDEX 1,Rhône-Alpes
f433ea9a-4d14-4c19-b321-5ca3b4ee52d5,Labney,1401 Donald Circle,96238,2437,
e411ae23-2cc2-44db-af29-451753b62434,Cockburn Town,19 Schlimgen Parkway,50,,
d9318d6c-d6fa-400e-9b9e-c757bf1cf676,Serrana,25073 Eastwood Way,1,14150-000,
d7deb9e3-0314-4ff6-8056-9fabba6846aa,Anta,6651 Lerdahl Alley,3,,
ef78fece-6235-4e8b-81c1-8322cb573eaf,Krajan Satu,18401 Union Trail,49747,,
69694038-c160-4855-8d27-1c7b50b00dde,Město,4788 Kingsford Terrace,30322,364 61,
7f1be9b0-5d11-48a1-a37a-ff94a0745717,Tuguanpu,3404 Crowley Junction,3081,,
5351732a-6797-49c4-887d-2c78014bd8e4,Padova,6975 Mcbride Trail,42211,35141,Veneto
87c4dba2-1c72-4098-b1fa-67d3b103b848,Riit,8 Lakeland Plaza,83,,
f0ca7816-9ae5-461d-9b9b-e79da31082a9,Narew,7389 Almo Junction,99268,17-210,
b3ebe847-3eb3-4dc6-a3fd-fcc4531934d9,Hobaramachi,44571 Waywood Pass,7230,960-0808,
f61ac490-7bf9-4c4f-ac3f-beca44c37496,Santa Bárbara d'Oeste,0 Northland Court,436,13450-000,
652fd4b1-2ed1-41c3-8ce5-fc45738fdaaa,San Marcos,88039 Nova Alley,74832,,
6fa72767-3796-4e2e-895f-69013170e5d3,Itapetinga,7179 Bonner Hill,77,45700-000,
ba8e6245-88b9-499b-85c7-386c91400776,Ouzini,56580 Canary Crossing,612,,
ce98de43-fc9f-47f4-ae73-523d970bd4ad,Xuefu,9 Lakeland Parkway,34,,
5fa63e9b-ecdb-4aac-8fcf-4fce2321e14d,Baliang,758 Lukken Court,86496,,
3119a978-a928-477d-b9af-95997648a570,Asyūţ,30347 Lighthouse Bay Court,32877,,
9bf0f72b-dfb7-4c44-950d-2ccb424cd72e,Pato Branco,44990 Del Mar Lane,27,85500-000,
ff38b8db-c825-4771-aaeb-690e7503684c,Bamban,7498 Dapin Lane,9724,,
37f54704-dec3-4cbf-904d-e2ed15d257fc,Sidamukti,964 Lien Park,9,,
816a6484-49b9-4fd1-aa34-ff137d190996,Zunilito,6 Mayer Crossing,2418,10009,
04f942e3-04d3-42ec-8c47-81d9ed86c907,Al Lagowa,8071 Surrey Center,12,,
2d9562c4-33fc-4494-88c9-b051255e6b21,Dū Laīnah,11905 Bartillon Court,265,,
783856a8-5ddc-468c-a3a9-0f5b2c74ec60,Crnilište,6888 Union Hill,11310,7505,
836e1644-2662-4eb0-a1fe-86bca9c8a145,Maluso,2 John Wall Pass,7,7303,
3e140af2-3bbc-4d04-b1c6-08fd0fd37cb9,Magdalena,16555 Heffernan Plaza,231,,
7993f99f-50aa-4fb8-92de-8f2dd1a353cd,Lima,077 American Drive,63,,
4301c5be-f9c3-456d-97d0-09cc20c96904,Honglu,9 Dovetail Crossing,84245,,
6aaa455e-c40a-40f4-9b5d-c87cc57336ea,Smolenskoye,9268 Onsgard Plaza,34,659600,
2ce1cbd7-cade-4da9-a194-43e976ed1709,Kompaniyivka,950 Moulton Junction,579,,
bffc70cc-1f0e-460c-9251-7255936177a8,Sosnovyy Bor,63 Southridge Junction,73502,601808,
afdc5a40-102a-4100-b936-410e4b029c9a,Belopa,870 Bultman Lane,22,,
44345762-19bb-41dd-8ec8-891bbd745c4c,Santa Cruz das Palmeiras,35 Vermont Hill,857,13650-000,
bfa16836-114e-4a17-a2d8-853c5672ff42,Nowy Duninów,97992 Londonderry Park,4,09-505,
f53b35c3-3b39-47b6-b8e5-d6d6ac15005b,Zeya,63 Hooker Alley,4062,186915,
740c4e0b-d152-4305-bc17-c47dc695f5ad,Irosin,76 Namekagon Point,42,4707,
2a862e6d-0e1f-4e67-a309-6d9de13f8985,Lazarevac,3 Victoria Alley,7,,
98c04b33-235a-4d40-8e59-ee3f1538f49a,Jambubol,2 Bartelt Center,2,,
76e6e66c-3ae3-4250-a548-7dbc7da53521,Preobrazheniye,3 Claremont Hill,2,429500,
edd2d654-5c6c-4d96-b3d7-827e65a26c6d,Saint Croix,8 Laurel Avenue,4686,851,
256bdc07-b222-4048-8be3-6a3163959806,Stavyshche,03558 Lien Place,6044,,
8418ed26-b3be-423b-8f55-aa18780451f4,Rio das Pedras,52945 Everett Terrace,9,13390-000,
44f39da6-17df-4895-86b7-28b48f20aba7,Pau,22 Dovetail Center,0,64029 CEDEX 9,Aquitaine
c5604c06-309f-4ae3-9131-52512cb4525e,Dobczyce,34845 Esch Trail,5,32-410,
a69e3d72-9d7c-4fd0-82a3-7ce4a6e58e94,Kristiansund N,1067 Arrowood Plaza,27020,6517,More og Romdal
c0cd93b3-9460-4dfe-a84b-b69dad62d51d,Dzüünkharaa,204 Amoth Parkway,13711,,
6b3402cc-8610-41ed-afae-c077884454d9,Cambanugoy,9 Springs Court,74,8102,
94f34959-ff0d-46d2-b59c-0fc54505b704,Montbéliard,641 Maryland Parkway,87,25204 CEDEX,Franche-Comté
5e2fe8c9-d003-4b71-b4de-ad3a505fa025,Mantampay,8 Haas Park,7,9201,
9b6bb565-42df-4c2f-9818-4ae544ec4c50,Kanigorokrajan,79 Erie Park,92513,,
112b388c-5aff-4b8e-9e21-9a11f6f22b46,Calaba,4910 Sullivan Court,93883,2807,
45b05b53-e7f2-4b91-aae8-847a3b194b19,Ejigbo,17643 Mendota Hill,4557,,
150840ce-0f3a-469a-961d-0c171d5d4304,Bunutan,4750 Briar Crest Avenue,61,,
d52eec55-5e17-4323-aedd-24c42aed2506,Jardinópolis,50767 Towne Hill,640,14680-000,
55be2a43-1e9e-4d16-8a37-64c7830c29ff,Feng’an,64774 Grim Circle,81,,
1037c15f-a906-44d3-ae72-5a661438f301,Bahir Dar,7011 Longview Street,7014,,
ecef9453-cd39-4535-85fb-aca16a2c9b32,Nowa Dęba,182 Forest Run Alley,89,39-460,
30050ad4-b568-4926-91b5-cd6b46526269,El Corozal,407 Troy Hill,275,,
cf1d34ce-22a1-43bb-9cd7-8be42c3cdb82,Zavrč,8041 Parkside Terrace,39,2283,
1fed6785-7aa7-4003-a604-8af5974b7e1f,Lhakangtang,59048 Kim Pass,1,,
de47f446-f74a-4720-b285-63423dac681a,Wichita,356 Nelson Avenue,169,67236,Kansas
92568d53-86d7-4706-9184-f1c14fe3d23a,Qi’an,2845 Oxford Lane,73,,
9f769bae-7ec6-408f-95c5-2cd6c54b7970,Puqian,35452 Fairview Point,9,,
a36e33a0-64b7-4f10-a97a-9bb1a7658f1d,Santo Anastácio,303 Atwood Park,249,19360-000,
8f1a075b-b475-45d5-86c8-95a315364d40,Clamart,2 Crest Line Point,6946,92144 CEDEX,Île-de-France
26ee6e82-59a8-4c1a-b4fe-8cad4df7b12c,Kang-neung,895 Dwight Junction,94231,,
00f45403-d6de-42d1-b021-6b93273bffef,Cigagade,30 Lotheville Terrace,1354,,
8271ccb8-ff03-45c3-bed9-614bbf6b38cf,Miracema,408 Algoma Court,51,28460-000,
5ce821fa-d66c-42bc-bc11-bfaeeefcde3f,Columbus,5268 Memorial Trail,6,31998,Georgia
f72b14e4-6a7e-4d63-98a3-2b41f4c96a9f,Kilmacanoge,724 Bunker Hill Trail,82,A98,
a34e133c-e105-4885-bb64-4da187c33655,Fendou,844 Jana Pass,327,,
b2ad72b7-f549-4e06-bec4-20f4a365d341,Hagi,7 Merry Pass,8937,869-6111,
124eb9d6-506f-41ca-a695-6e6cb8c6daa4,Fatumnasi,38 Monument Road,5581,,
affd70b3-04d9-4665-bffb-70191902d630,Naivasha,38551 Crowley Crossing,59,,
de0716f2-cc74-4881-b95b-58306768a503,Banjar Pangkungtibah Selatan,4 Killdeer Trail,17,,
745a86d7-ab2d-49be-9ecd-1c200ee32b6d,Qiaole,5971 Briar Crest Street,35531,,
25f7d3a2-87bf-4e4b-b6e5-3832b69f581d,Zhangjiaji,5646 Rieder Plaza,4998,,
fa4d93f5-d9c7-4e9d-885e-8bf74d0de88d,Karanglo,43196 Southridge Terrace,9,,
0a763e27-d435-4bed-b949-937d91a8fdca,Yuanqiao,016 Golf Course Road,8,,
e916ebe6-9530-4f56-ae9d-d8c176a88b10,Majiao,219 Lighthouse Bay Circle,50635,,
7d7ea736-0795-488f-954b-dad8e01f579c,Zhaitou,14 Crowley Alley,82415,,
